name,image_link,state,city,latitude,longitude
"World's Largest Redwood Tree Service Station (1936), angle, Route 101, Ukiah, California",https://cdn.loc.gov/service/pnp/mrg/00000/00007v.jpg,California,Ukiah,39.1501662,-123.2077861
"Gordon Spencer gas station, 4691 Huntington Drive, South Pasadena, California",https://cdn.loc.gov/service/pnp/mrg/00000/00022v.jpg,California,South Pasadena,34.1133062,-118.1478291
"Mattoon Service Station (pre-fabricated), angle view, National & Washington Boulevards, Culver City, California",https://cdn.loc.gov/service/pnp/mrg/00000/00037v.jpg,California,Culver City,34.0211224,-118.396466
"Richfield Gas, Route 66, Cucamonga, California",https://cdn.loc.gov/service/pnp/mrg/00000/00038v.jpg,California,Cucamonga,34.0991995,-117.6022102
"Far-Go gas pumps, Main Street, Barstow, California",https://cdn.loc.gov/service/pnp/mrg/00000/00053v.jpg,California,Barstow,34.8986215,-117.0244313
"Earl Schieb Auto Painting sign, upper detail, Olympic Boulevard, Beverly Hills, California",https://cdn.loc.gov/service/pnp/mrg/00000/00063v.jpg,California,Beverly Hills,34.0696501,-118.3963062
"Compton Car Wash, Rosecrans Avenue, Compton, California",https://cdn.loc.gov/service/pnp/mrg/00000/00068v.jpg,California,Compton,33.894927,-118.226624
"Delta Queen Car Wash, side view, Hamilton Avenue near Bascom, Campbell, California",https://cdn.loc.gov/service/pnp/mrg/00000/00069v.jpg,California,Campbell,37.2870626,-121.944881
"Delta Queen Car Wash, front view, Hamilton Avenue near Bascom, Campbell, California",https://cdn.loc.gov/service/pnp/mrg/00000/00070v.jpg,California,Campbell,37.2870626,-121.944881
"Hillborn Top Shop formerly Gates Tires, tower view, Washington Place 7 Grandview, Mar Vista, California",https://cdn.loc.gov/service/pnp/mrg/00000/00071v.jpg,California,Mar Vista,34.0037605,-118.4391641
"The Donut Hole, straight-on view, no cars, Amar Road, La Puente, California",https://cdn.loc.gov/service/pnp/mrg/00000/00081v.jpg,California,La Puente,34.0280619,-117.953097
"The Donut Hole, angle view, Amar Road, La Puente, California",https://cdn.loc.gov/service/pnp/mrg/00000/00082v.jpg,California,La Puente,34.0280619,-117.953097
"Hoot Owl Cafe, horizontal view, 8711 Long Beach Boulevard, Southgate, Los Angeles, California",https://cdn.loc.gov/service/pnp/mrg/00000/00084v.jpg,California,Los Angeles,34.0536909,-118.242766
"Hoot Owl Cafe, side view, 8711 Long Beach Boulevard, Southgate, Los Angeles, California",https://cdn.loc.gov/service/pnp/mrg/00000/00085v.jpg,California,Los Angeles,34.0536909,-118.242766
"The Mad Greek (formerly Sam's Roast Beef), 6th Street, Corona, California",https://cdn.loc.gov/service/pnp/mrg/00000/00097v.jpg,California,Corona,33.8752945,-117.566444
"McDonald's, Foothill Boulevard, Azusa, California",https://cdn.loc.gov/service/pnp/mrg/00100/00137v.jpg,California,Azusa,34.1338751,-117.9056046
"Tower Restaurant, angle 1, University Avenue and Reno Drive, San Diego, California",https://cdn.loc.gov/service/pnp/mrg/00100/00144v.jpg,California,San Diego,32.7174202,-117.162772
"Tower Restaurant, angle 2, University Avenue and Rene Drive, San Diego, California",https://cdn.loc.gov/service/pnp/mrg/00100/00145v.jpg,California,San Diego,32.7174202,-117.162772
"George Joe Restaurant, horizontal view, Murray Drive & Grossmont Boulevard, La Mesa, California",https://cdn.loc.gov/service/pnp/mrg/00100/00152v.jpg,California,La Mesa,32.7678288,-117.0230839
"Motel Inn (1925) (""first motel""), horizontal view, Route 101, San Luis Obispo, California",https://cdn.loc.gov/service/pnp/mrg/00100/00178v.jpg,California,San Luis Obispo,35.3540209,-120.375716
"Motel Inn (""first motel""), vertical view, Route 101, San Luis Obispo, California",https://cdn.loc.gov/service/pnp/mrg/00100/00179v.jpg,California,San Luis Obispo,35.3540209,-120.375716
"Log Cabin Motel Office, San Leandro, California",https://cdn.loc.gov/service/pnp/mrg/00100/00190v.jpg,California,San Leandro,37.7249296,-122.1560768
"Motel Crystal Pier, entrance, Pacific Beach, California",https://cdn.loc.gov/service/pnp/mrg/00200/00202v.jpg,California,Pacific Beach,32.7978268,-117.2403183
"Motel Crystal Pier, side view, Pacific Beach, California",https://cdn.loc.gov/service/pnp/mrg/00200/00203v.jpg,California,Pacific Beach,32.7978268,-117.2403183
"Log Cabin Motel, closer front view, 830 Market Street, Morro Bay, California",https://cdn.loc.gov/service/pnp/mrg/00200/00231v.jpg,California,Morro Bay,35.3658075,-120.849901
"Log Cabin Motel, diagonal view, 830 Market Street, Morro Bay, California",https://cdn.loc.gov/service/pnp/mrg/00200/00232v.jpg,California,Morro Bay,35.3658075,-120.849901
"Mission Motel, overall view, Mt. Vernon Avenue & Orange Street, San Bernardino, California",https://cdn.loc.gov/service/pnp/mrg/00200/00235v.jpg,California,San Bernardino,34.8253019,-116.0833144
"Mission Motel, diagonal view 1, Mt. Vernon Avenue & Orange Street, San Bernardino, California",https://cdn.loc.gov/service/pnp/mrg/00200/00236v.jpg,California,San Bernardino,34.8253019,-116.0833144
"El Monte Drive-In Theater, Lower Azusa Road, El Monte, California",https://cdn.loc.gov/service/pnp/mrg/00200/00299v.jpg,California,El Monte,34.0751571,-118.036849
"Lakewood Drive-In Theater, Carson Street, Lakewood, California",https://cdn.loc.gov/service/pnp/mrg/00300/00300v.jpg,California,Lakewood,33.8503463,-118.117191
"Tri City Drive-In Theater, straight-on view, Redlands Boulevard, Loma Linda, California",https://cdn.loc.gov/service/pnp/mrg/00300/00301v.jpg,California,Loma Linda,34.0537971,-117.2610925
"San Pedro Drive-In Theater, angle from right, gray sky, Gaffey Street, San Pedro, Los Angeles, California",https://cdn.loc.gov/service/pnp/mrg/00300/00303v.jpg,California,Los Angeles,34.0536909,-118.242766
"San Pedro Drive-In Theater, angle from right, blue sky, Gaffey Street, San Pedro, Los Angeles, California",https://cdn.loc.gov/service/pnp/mrg/00300/00304v.jpg,California,Los Angeles,34.0536909,-118.242766
"San Pedro Drive-In Theater, wide-angle straight-on view of mural itself, Gaffey Street, San Pedro, Los Angeles, California",https://cdn.loc.gov/service/pnp/mrg/00300/00305v.jpg,California,Los Angeles,34.0536909,-118.242766
"San Pedro Drive-In Theater, angle from left, Gaffey Street, San Pedro, Los Angeles, California",https://cdn.loc.gov/service/pnp/mrg/00300/00306v.jpg,California,Los Angeles,34.0536909,-118.242766
"San Pedro Drive-In Theater, closer view of angle from left Gaffey Street, Los Angeles, California",https://cdn.loc.gov/service/pnp/mrg/00300/00307v.jpg,California,Los Angeles,34.0536909,-118.242766
"Van Nuys Drive-In Theater, Roscoe Boulevard, Van Nuys, California",https://cdn.loc.gov/service/pnp/mrg/00300/00308v.jpg,California,Van Nuys,34.1866193,-118.4486675
"Terrace Drive-In Theater, Terrace Way, Bakersfield, California",https://cdn.loc.gov/service/pnp/mrg/00300/00322v.jpg,California,Bakersfield,35.3738712,-119.019463
"The Tower Bowl, left side of tower detail, Broadway near Kettner, San Diego, California",https://cdn.loc.gov/service/pnp/mrg/00300/00340v.jpg,California,San Diego,32.7174202,-117.162772
"The Tower Bowl, straight-on tower view 2, Broadway near Kettner, San Diego, California",https://cdn.loc.gov/service/pnp/mrg/00300/00341v.jpg,California,San Diego,32.7174202,-117.162772
"City Hall, Mission Boulevard near D Street, Hayward, California",https://cdn.loc.gov/service/pnp/mrg/00400/00412v.jpg,California,Hayward,37.6688205,-122.080796
"Arcata Theater, G Street, Arcata, California",https://cdn.loc.gov/service/pnp/mrg/00400/00447v.jpg,California,Arcata,40.866517,-124.08284
"Reel Joy Theater, King City, California",https://cdn.loc.gov/service/pnp/mrg/00400/00449v.jpg,California,King City,36.2135291,-121.1247365
"Tower Theater Box Office, Olive Street, Fresno, California",https://cdn.loc.gov/service/pnp/mrg/00400/00450v.jpg,California,Fresno,36.7394421,-119.78483
"Merced Theater, Main Street, Merced, California",https://cdn.loc.gov/service/pnp/mrg/00400/00451v.jpg,California,Merced,37.1641544,-120.7678602
"Merced Theater, marquee neon detail, Main Street, Merced, California",https://cdn.loc.gov/service/pnp/mrg/00400/00452v.jpg,California,Merced,37.1641544,-120.7678602
"Loyola Theater, Manchester & Sepulveda Boulevards, Westchester, California",https://cdn.loc.gov/service/pnp/mrg/00400/00453v.jpg,California,Westchester,33.9597349,-118.400632
"Loyola Theater, tower detail, Manchester & Sepulveda Boulevard, Westchester, California",https://cdn.loc.gov/service/pnp/mrg/00400/00454v.jpg,California,Westchester,33.9597349,-118.400632
"Loyola Theater, defaced, Manchester & Sepulveda Boulevard, Westchester, California",https://cdn.loc.gov/service/pnp/mrg/00400/00455v.jpg,California,Westchester,33.9597349,-118.400632
"Loyola Theater, forecourt, Manchester & Sepulveda Boulevard, Westchester, California",https://cdn.loc.gov/service/pnp/mrg/00400/00456v.jpg,California,Westchester,33.9597349,-118.400632
"Loyola Theater, ticket booth, Manchester & Sepulveda Boulevard, Westchester, California",https://cdn.loc.gov/service/pnp/mrg/00400/00457v.jpg,California,Westchester,33.9597349,-118.400632
"McDougal Building (1898), overall vertical, Main & Gabilan, Salinas, California",https://cdn.loc.gov/service/pnp/mrg/00500/00523v.jpg,California,Salinas,36.6744117,-121.655037
"McDougal Building (1898), corner detail, Main & Gabilan, Salinas, California",https://cdn.loc.gov/service/pnp/mrg/00500/00524v.jpg,California,Salinas,36.6744117,-121.655037
"McDougal Building, entrance multi-columns, Main & Gabilan, Salinas, California",https://cdn.loc.gov/service/pnp/mrg/00500/00525v.jpg,California,Salinas,36.6744117,-121.655037
"McDougal Building, entrance multi-columns detail, Main & Gabilan, Salinas, California",https://cdn.loc.gov/service/pnp/mrg/00500/00526v.jpg,California,Salinas,36.6744117,-121.655037
"McDougal Building (1898), entrance detail, Main & Gabilan, Salinas, California",https://cdn.loc.gov/service/pnp/mrg/00500/00527v.jpg,California,Salinas,36.6744117,-121.655037
"B.P.O.E. Elks Lodge, Main Street, Alturas, California",https://cdn.loc.gov/service/pnp/mrg/00500/00533v.jpg,California,Alturas,41.487123,-120.542327
"Moose Lodge, Chester Avenue, Bakersfield, California",https://cdn.loc.gov/service/pnp/mrg/00500/00534v.jpg,California,Bakersfield,35.3738712,-119.019463
"Masonic Temple, angle view, Mineral King Avenue, Visalia, California",https://cdn.loc.gov/service/pnp/mrg/00500/00535v.jpg,California,Visalia,36.3302284,-119.292058
"Masonic Temple, straight-on view, Mineral King Avenue, Visalia, California",https://cdn.loc.gov/service/pnp/mrg/00500/00536v.jpg,California,Visalia,36.3302284,-119.292058
"I.O.O.F. Building (now an antique store), Oak Street, Red Bluff, California",https://cdn.loc.gov/service/pnp/mrg/00500/00542v.jpg,California,Red Bluff,40.1784279,-122.235923
"Orchid Beauty Shop, 3586 Adams Avenue, San Diego, California",https://cdn.loc.gov/service/pnp/mrg/00500/00594v.jpg,California,San Diego,32.7174202,-117.162772
"Nolo's Barber Shop, Sepulveda Boulevard, Van Nuys, California",https://cdn.loc.gov/service/pnp/mrg/00600/00605v.jpg,California,Van Nuys,34.1866193,-118.4486675
"Santa Fe Railroad Station, 7th Street, Riverside, California",https://cdn.loc.gov/service/pnp/mrg/00600/00629v.jpg,California,Riverside,33.9824949,-117.374238
"Union Pacific Railroad Station, near 7th Street and Vine, Riverside, California",https://cdn.loc.gov/service/pnp/mrg/00600/00630v.jpg,California,Riverside,33.9824949,-117.374238
"Coca Cola Bottling Company, overall diagonal view from left, 14th & Central Avenue, Los Angeles, California",https://cdn.loc.gov/service/pnp/mrg/00600/00641v.jpg,California,Los Angeles,34.0536909,-118.242766
"Coca Cola Bottling Company, overall diagonal view from right, 14th & Central Avenue, Los Angeles, California",https://cdn.loc.gov/service/pnp/mrg/00600/00642v.jpg,California,Los Angeles,34.0536909,-118.242766
"Coca Cola Bottling Company, closer diagonal view from right, 14th & Central Avenue, Los Angeles, California",https://cdn.loc.gov/service/pnp/mrg/00600/00643v.jpg,California,Los Angeles,34.0536909,-118.242766
"Coca Cola Bottling Company, two-door detail, 14th & Central Avenue, Los Angeles, California",https://cdn.loc.gov/service/pnp/mrg/00600/00644v.jpg,California,Los Angeles,34.0536909,-118.242766
"Coca Cola Bottling Company, single door detail, 14th & Central Avenue, Los Angeles, California",https://cdn.loc.gov/service/pnp/mrg/00600/00645v.jpg,California,Los Angeles,34.0536909,-118.242766
"Coca Cola Bottling Company, 14th & Central Avenue, Los Angeles, California",https://cdn.loc.gov/service/pnp/mrg/00600/00646v.jpg,California,Los Angeles,34.0536909,-118.242766
"Coca Cola Bottling Company, giant Coke bottle corner detail, 14th & Central Avenue, Los Angeles, California",https://cdn.loc.gov/service/pnp/mrg/00600/00647v.jpg,California,Los Angeles,34.0536909,-118.242766
"Coca Cola Bottling Company, giant Coke bottle closer view, 14th & Central Avenue, Los Angeles, California",https://cdn.loc.gov/service/pnp/mrg/00600/00648v.jpg,California,Los Angeles,34.0536909,-118.242766
"The Hogan, Main Street, San Jacinto, California",https://cdn.loc.gov/service/pnp/mrg/00600/00659v.jpg,California,San Jacinto,33.7839664,-116.9589086
"Deschwanden's Shoe Repair (""The Big Shoe""), angle view, 10th & Chester, Bakersfield, California",https://cdn.loc.gov/service/pnp/mrg/00600/00660v.jpg,California,Bakersfield,35.3738712,-119.019463
"Deschwanden's Shoe Repair (""The Big Shoe""), straight-on view, 10th & Chester, Bakersfield, California",https://cdn.loc.gov/service/pnp/mrg/00600/00661v.jpg,California,Bakersfield,35.3738712,-119.019463
"The Big Shoe, angle view, 10th & Chester, Bakersfield, California",https://cdn.loc.gov/service/pnp/mrg/00600/00662v.jpg,California,Bakersfield,35.3738712,-119.019463
"The Big Shoe, straight-on view, 10th & Chester, Bakersfield, California",https://cdn.loc.gov/service/pnp/mrg/00600/00663v.jpg,California,Bakersfield,35.3738712,-119.019463
"Main Street stores, angle view, Red Bluff, California",https://cdn.loc.gov/service/pnp/mrg/00600/00684v.jpg,California,Red Bluff,40.1784279,-122.235923
"Bitter End, 5th Avenue, San Diego, California",https://cdn.loc.gov/service/pnp/mrg/00700/00745v.jpg,California,San Diego,32.7174202,-117.162772
"Thrift store, Mission Street, San Miguel, California",https://cdn.loc.gov/service/pnp/mrg/00700/00746v.jpg,California,San Miguel,35.754959,-120.6932271
"Mendota Block, front, Main Street, Ocean Park, Santa Monica, California",https://cdn.loc.gov/service/pnp/mrg/00700/00747v.jpg,California,Santa Monica,34.0194704,-118.491227
"Live Oak Realty, angle 1, S. Sagunto Street, Santa Ynez, California",https://cdn.loc.gov/service/pnp/mrg/00700/00748v.jpg,California,Santa Ynez,34.6161143,-120.0933753
"Live Oak Realty, angle 2, S. Sagunto Street, Santa Ynez, California",https://cdn.loc.gov/service/pnp/mrg/00700/00749v.jpg,California,Santa Ynez,34.6161143,-120.0933753
"Commercial building, Alisal Street, Salinas, California",https://cdn.loc.gov/service/pnp/mrg/00700/00750v.jpg,California,Salinas,36.6744117,-121.655037
"Law offices, column detail, Gabilan Street, Salinas, California",https://cdn.loc.gov/service/pnp/mrg/00700/00751v.jpg,California,Salinas,36.6744117,-121.655037
"Medico-Dental Building, entrance, Sutter Street, Stockton, California",https://cdn.loc.gov/service/pnp/mrg/00700/00752v.jpg,California,Stockton,37.9577016,-121.290779
"Commercial building, Weber Street, Stockton, California",https://cdn.loc.gov/service/pnp/mrg/00700/00753v.jpg,California,Stockton,37.9577016,-121.290779
"Shirley's Beauty Salon, 1421 Washington Boulevard, Venice, California",https://cdn.loc.gov/service/pnp/mrg/00700/00754v.jpg,California,Venice,33.995044,-118.4668875
"Beauty salon, Stockton Boulevard, Sacramento, California",https://cdn.loc.gov/service/pnp/mrg/00700/00755v.jpg,California,Sacramento,38.5810606,-121.493895
"Courthouse, angle 1, Court Street, Visalia, California",https://cdn.loc.gov/service/pnp/mrg/00800/00833v.jpg,California,Visalia,36.3302284,-119.292058
"San Luis Obispo County Courthouse, angle 1, Osos Street, San Luis Obispo, California",https://cdn.loc.gov/service/pnp/mrg/00800/00834v.jpg,California,San Luis Obispo,35.3540209,-120.375716
"San Luis Obispo County Courthouse, angle 2, Osos Street, San Luis Obispo, California",https://cdn.loc.gov/service/pnp/mrg/00800/00835v.jpg,California,San Luis Obispo,35.3540209,-120.375716
"Modoc County Courthouse, Court Avenue, Alturas, California",https://cdn.loc.gov/service/pnp/mrg/00800/00836v.jpg,California,Alturas,41.487123,-120.542327
"Moose Lodge #2171, angle 1, El Camino Real Street, Santa Margarita, California",https://cdn.loc.gov/service/pnp/mrg/00800/00862v.jpg,California,Santa Margarita,35.3899734,-120.609057
"Moose Lodge #2171, angle 2, El Camino Real Street, Santa Margarita, California",https://cdn.loc.gov/service/pnp/mrg/00800/00863v.jpg,California,Santa Margarita,35.3899734,-120.609057
"Masonic Hall, Petaluma Boulevard & Western Avenue, Petaluma, California",https://cdn.loc.gov/service/pnp/mrg/00800/00864v.jpg,California,Petaluma,38.2325829,-122.636465
"American Legion Post, Spring Street & 4th, Paso Robles, California",https://cdn.loc.gov/service/pnp/mrg/00800/00865v.jpg,California,Paso Robles,35.6262618,-120.6901319
"Holiday Inn, Hollywood, California",https://cdn.loc.gov/service/pnp/mrg/00900/00922v.jpg,California,Hollywood,34.0980031,-118.329523
"Hotel Stockton, Stockton, California",https://cdn.loc.gov/service/pnp/mrg/00900/00923v.jpg,California,Stockton,37.9577016,-121.290779
"Mission Inn, angle 1, Orange Street, Riverside, California",https://cdn.loc.gov/service/pnp/mrg/00900/00924v.jpg,California,Riverside,33.9824949,-117.374238
"Mission Inn, angle 2, Orange Street, Riverside, California",https://cdn.loc.gov/service/pnp/mrg/00900/00925v.jpg,California,Riverside,33.9824949,-117.374238
"Palace Hotel (1891), State Street, Ukiah, California",https://cdn.loc.gov/service/pnp/mrg/00900/00926v.jpg,California,Ukiah,39.1501662,-123.2077861
"Solvang Castle Inn, angle 1, Route 246, Solvang, California",https://cdn.loc.gov/service/pnp/mrg/00900/00927v.jpg,California,Solvang,34.5960774,-120.1381144
"Solvang Castle Inn, angle 2, Route 246, Solvang, California",https://cdn.loc.gov/service/pnp/mrg/00900/00928v.jpg,California,Solvang,34.5960774,-120.1381144
"The Hopland Inn, Route 101, Hopland, California",https://cdn.loc.gov/service/pnp/mrg/00900/00929v.jpg,California,Hopland,38.9729542,-123.1163918
"Corner Building, State & Pearl Streets, Ukiah, California",https://cdn.loc.gov/service/pnp/mrg/00900/00934v.jpg,California,Ukiah,39.1501662,-123.2077861
"Cole Block (1891), angle 2, San Diego, California",https://cdn.loc.gov/service/pnp/mrg/00900/00936v.jpg,California,San Diego,32.7174202,-117.162772
"George J. Keating Building (1890), 5th & F Streets, San Diego, California",https://cdn.loc.gov/service/pnp/mrg/00900/00937v.jpg,California,San Diego,32.7174202,-117.162772
"Corner Building detail, angle 1, 12th & Park, Paso Robles, California",https://cdn.loc.gov/service/pnp/mrg/00900/00938v.jpg,California,Paso Robles,35.6262618,-120.6901319
"Corner Building detail, angle 2 (closer), 12th & Park, Paso Robles, California",https://cdn.loc.gov/service/pnp/mrg/00900/00939v.jpg,California,Paso Robles,35.6262618,-120.6901319
"Old McKinleyville Store (1897), Route 101B, McKinleyville, California",https://cdn.loc.gov/service/pnp/mrg/00900/00941v.jpg,California,McKinleyville,40.966005,-124.1027898
"Old City Hall, angle 1, 7th & Orange Streets, Riverside, California",https://cdn.loc.gov/service/pnp/mrg/00900/00975v.jpg,California,Riverside,33.9824949,-117.374238
"Old City Hall, angle 2, 7th & Orange Streets, Riverside, California",https://cdn.loc.gov/service/pnp/mrg/00900/00976v.jpg,California,Riverside,33.9824949,-117.374238
"Maywood City Hall, Slauson & NE Fishburn, Maywood, Los Angeles, California",https://cdn.loc.gov/service/pnp/mrg/00900/00977v.jpg,California,Los Angeles,34.0536909,-118.242766
"Auditorium, Bakersfield City School District, Bakersfield, California",https://cdn.loc.gov/service/pnp/mrg/00900/00978v.jpg,California,Bakersfield,35.3738712,-119.019463
"Central Fire Station, 21st & H, Bakersfield, California",https://cdn.loc.gov/service/pnp/mrg/00900/00979v.jpg,California,Bakersfield,35.3738712,-119.019463
"Post Office, Sycamore Street, Willows, California",https://cdn.loc.gov/service/pnp/mrg/01000/01001v.jpg,California,Willows,39.5233276,-122.193531
"Memorial Park Building, Main Street, Visalia, California",https://cdn.loc.gov/service/pnp/mrg/01000/01003v.jpg,California,Visalia,36.3302284,-119.292058
"Veteran's Memorial Building, angle 1, Route 56, Susanville, California",https://cdn.loc.gov/service/pnp/mrg/01000/01004v.jpg,California,Susanville,40.4162842,-120.653006
"Veteran's Memorial Building, angle 2, Route 56, Susanville, California",https://cdn.loc.gov/service/pnp/mrg/01000/01005v.jpg,California,Susanville,40.4162842,-120.653006
"City Hall, angle 1, Lindsay Street, Stockton, California",https://cdn.loc.gov/service/pnp/mrg/01000/01006v.jpg,California,Stockton,37.9577016,-121.290779
"City Hall, entrance, angle 2, Lindsay Street, Stockton, California",https://cdn.loc.gov/service/pnp/mrg/01000/01007v.jpg,California,Stockton,37.9577016,-121.290779
"City Hall, angle 1, Broadway & Cook Street, Santa Maria, California",https://cdn.loc.gov/service/pnp/mrg/01000/01008v.jpg,California,Santa Maria,34.9531295,-120.435857
"City Hall, angle 2, Broadway & Cook Street, Santa Maria, California",https://cdn.loc.gov/service/pnp/mrg/01000/01009v.jpg,California,Santa Maria,34.9531295,-120.435857
"City Hall, angle 3, Broadway & Cook Street, Santa Maria, California",https://cdn.loc.gov/service/pnp/mrg/01000/01010v.jpg,California,Santa Maria,34.9531295,-120.435857
"City Hall, Main Street, Santa Monica, California",https://cdn.loc.gov/service/pnp/mrg/01000/01011v.jpg,California,Santa Monica,34.0194704,-118.491227
"Post Office (then an antiques mall), Petaluma Boulevard, Petaluma, California",https://cdn.loc.gov/service/pnp/mrg/01000/01012v.jpg,California,Petaluma,38.2325829,-122.636465
"City of Novato Community Development Building, Sherman Avenue, Novato, California",https://cdn.loc.gov/service/pnp/mrg/01000/01013v.jpg,California,Novato,38.1061979,-122.5681191
"Street view, Solvang, California",https://cdn.loc.gov/service/pnp/mrg/01000/01066v.jpg,California,Solvang,34.5960774,-120.1381144
"Street view 2, Solvang, California",https://cdn.loc.gov/service/pnp/mrg/01000/01067v.jpg,California,Solvang,34.5960774,-120.1381144
"Soft Water Wash, Main Street, Ocean Park, California",https://cdn.loc.gov/service/pnp/mrg/01000/01069v.jpg,California,Ocean Park,34.0022327,-118.4836879
"Harris Department Store, angle 2, E Street, San Bernardino, California",https://cdn.loc.gov/service/pnp/mrg/01000/01070v.jpg,California,San Bernardino,34.8253019,-116.0833144
"Thrift Store, Baseline [i.e. Base Line] Street, San Bernardino, California",https://cdn.loc.gov/service/pnp/mrg/01000/01071v.jpg,California,San Bernardino,34.8253019,-116.0833144
"Lanmart [i.e. Lan Mart] Building (1911), Petaluma Boulevard, Petaluma, California",https://cdn.loc.gov/service/pnp/mrg/01000/01072v.jpg,California,Petaluma,38.2325829,-122.636465
"Gift Shop (redwood), Route 101, Orick, California",https://cdn.loc.gov/service/pnp/mrg/01000/01073v.jpg,California,Orick,41.2867896,-124.0597937
"Retro deco building, Route 41, Morro Bay, California",https://cdn.loc.gov/service/pnp/mrg/01000/01074v.jpg,California,Morro Bay,35.3658075,-120.849901
"Pacific Boats, 1927 [i.e. 1427] Long Beach Boulevard, Long Beach, California",https://cdn.loc.gov/service/pnp/mrg/01000/01075v.jpg,California,Long Beach,33.7690164,-118.191604
"Model Drive In Cleaner, angle 1, 25th & Long Beach Boulevard, Long Beach, California",https://cdn.loc.gov/service/pnp/mrg/01000/01076v.jpg,California,Long Beach,33.7690164,-118.191604
"Model Drive In Cleaner, angle, 25th & Long Beach Boulevard, Long Beach, California",https://cdn.loc.gov/service/pnp/mrg/01000/01077v.jpg,California,Long Beach,33.7690164,-118.191604
"Repp & Mott Auction House, angle 1, 2501 E. Anaheim Street, Long Beach, California",https://cdn.loc.gov/service/pnp/mrg/01000/01078v.jpg,California,Long Beach,33.7690164,-118.191604
"Repp & Mott Auction House, angle 2, further away, 201 E. Anaheim Street, Long Beach, California",https://cdn.loc.gov/service/pnp/mrg/01000/01079v.jpg,California,Long Beach,33.7690164,-118.191604
"Boulevard Furniture, El Cajon Boulevard, El Cajon, California",https://cdn.loc.gov/service/pnp/mrg/01000/01080v.jpg,California,El Cajon,32.7947731,-116.962526
"Ruth [i.e. Roth] Draperies, Beverly Boulevard, Los Angeles, California",https://cdn.loc.gov/service/pnp/mrg/01000/01081v.jpg,California,Los Angeles,34.0536909,-118.242766
"R & R Blue Print Company, 1227 Avalon Boulevard, Wilmington, California",https://cdn.loc.gov/service/pnp/mrg/01000/01082v.jpg,California,Wilmington,33.7800164,-118.262509
"Foodman Market, Pacific Coast Highway, Wilmington, California",https://cdn.loc.gov/service/pnp/mrg/01000/01083v.jpg,California,Wilmington,33.7800164,-118.262509
"Gilbert 5 10 25, 1st [i.e. I Street] & Avalon Boulevard, Wilmington, California",https://cdn.loc.gov/service/pnp/mrg/01000/01084v.jpg,California,Wilmington,33.7800164,-118.262509
"Storefront, Rose Avenue, Venice, California",https://cdn.loc.gov/service/pnp/mrg/01000/01085v.jpg,California,Venice,33.995044,-118.4668875
"Windecor, Ventura, California",https://cdn.loc.gov/service/pnp/mrg/01000/01086v.jpg,California,Ventura,34.4458248,-119.0779359
"Ritz Building (1940), Eureka, California",https://cdn.loc.gov/service/pnp/mrg/01000/01098v.jpg,California,Eureka,40.8018746,-124.1707558
"Kofopilau, 2nd Street, Eureka, California",https://cdn.loc.gov/service/pnp/mrg/01000/01099v.jpg,California,Eureka,40.8018746,-124.1707558
"Commercial building, 123 F Street, Eureka, California",https://cdn.loc.gov/service/pnp/mrg/01100/01100v.jpg,California,Eureka,40.8018746,-124.1707558
"Commercial building, angle 1, 123 F Street, Eureka, California",https://cdn.loc.gov/service/pnp/mrg/01100/01101v.jpg,California,Eureka,40.8018746,-124.1707558
"Commercial building, detail 1, 123 F Street, Eureka, California",https://cdn.loc.gov/service/pnp/mrg/01100/01102v.jpg,California,Eureka,40.8018746,-124.1707558
"Carson Block (1892), Eureka, California",https://cdn.loc.gov/service/pnp/mrg/01100/01103v.jpg,California,Eureka,40.8018746,-124.1707558
"Harris Department Store, stair detail, E Street, San Bernardino, California",https://cdn.loc.gov/service/pnp/mrg/01100/01104v.jpg,California,San Bernardino,34.8253019,-116.0833144
"Commercial building, straight on, Fifth Street, Eureka, California",https://cdn.loc.gov/service/pnp/mrg/01100/01105v.jpg,California,Eureka,40.8018746,-124.1707558
"Commercial building, 2nd & F Streets, Eureka, California",https://cdn.loc.gov/service/pnp/mrg/01100/01106v.jpg,California,Eureka,40.8018746,-124.1707558
"Graystone Distinctive Jewelry, 2nd & F Street, Eureka, California",https://cdn.loc.gov/service/pnp/mrg/01100/01107v.jpg,California,Eureka,40.8018746,-124.1707558
"Gavett Studios, 5512 Adams Avenue, San Diego, California",https://cdn.loc.gov/service/pnp/mrg/01100/01108v.jpg,California,San Diego,32.7174202,-117.162772
"Ralph Kuettel Pianos, Olive Avenue, Fresno, California",https://cdn.loc.gov/service/pnp/mrg/01100/01109v.jpg,California,Fresno,36.7394421,-119.78483
"Chuck's Billiards, 1601 Manchester, Los Angeles, California",https://cdn.loc.gov/service/pnp/mrg/01100/01110v.jpg,California,Los Angeles,34.0536909,-118.242766
"Big Town Food Center, Pico & La Cienega, Los Angeles, California",https://cdn.loc.gov/service/pnp/mrg/01100/01111v.jpg,California,Los Angeles,34.0536909,-118.242766
"Heard's Market, Route 395, Litchfield, California",https://cdn.loc.gov/service/pnp/mrg/01100/01112v.jpg,California,Litchfield,40.3826772,-120.387163
"The Flower Shop (reused gas station), horizontal, Vanderhurst Street, King City, California",https://cdn.loc.gov/service/pnp/mrg/01100/01113v.jpg,California,King City,36.2135291,-121.1247365
"The Flower Shop (reused gas station), vertical, Vanderhurst Street, King City, California",https://cdn.loc.gov/service/pnp/mrg/01100/01114v.jpg,California,King City,36.2135291,-121.1247365
"Woolworths, 3200 Lankershim Boulevard, North Hollywood, California",https://cdn.loc.gov/service/pnp/mrg/01100/01115v.jpg,California,North Hollywood,34.1649502,-118.374752
"American Kleaner, E. 21st Street, Bakersfield, California",https://cdn.loc.gov/service/pnp/mrg/01100/01116v.jpg,California,Bakersfield,35.3738712,-119.019463
"Easton's Gym, Beverly Boulevard, Los Angeles, California",https://cdn.loc.gov/service/pnp/mrg/01100/01118v.jpg,California,Los Angeles,34.0536909,-118.242766
"Liquor store, Orange Avenue, Coronado, California",https://cdn.loc.gov/service/pnp/mrg/01100/01119v.jpg,California,Coronado,32.6915199,-117.1766947
"Woolworth's Antique Mall, Bakersfield, California",https://cdn.loc.gov/service/pnp/mrg/01100/01120v.jpg,California,Bakersfield,35.3738712,-119.019463
"Bahn's Jewelers, horizontal, Ventura, California",https://cdn.loc.gov/service/pnp/mrg/01100/01121v.jpg,California,Ventura,34.4458248,-119.0779359
"Bahn's Jewelers, vertical, Ventura, California",https://cdn.loc.gov/service/pnp/mrg/01100/01122v.jpg,California,Ventura,34.4458248,-119.0779359
"Disabled Vets Thrift Shop, 649 San Fernando Road, Burbank, California",https://cdn.loc.gov/service/pnp/mrg/01100/01123v.jpg,California,Burbank,34.1812089,-118.307201
"Snyder Surplus, 725 San Fernando Road, Burbank, California",https://cdn.loc.gov/service/pnp/mrg/01100/01124v.jpg,California,Burbank,34.1812089,-118.307201
"Henne's Homemade Candy, Ice Cream, State Street, Ukiah, California",https://cdn.loc.gov/service/pnp/mrg/01200/01250v.jpg,California,Ukiah,39.1501662,-123.2077861
"Milt's Iron Horse Restaurant, Oak Street, Bakersfield, California",https://cdn.loc.gov/service/pnp/mrg/01200/01264v.jpg,California,Bakersfield,35.3738712,-119.019463
"Carney's Diner, angle 1, Sunset Boulevard, Hollywood, California",https://cdn.loc.gov/service/pnp/mrg/01200/01265v.jpg,California,Hollywood,34.0980031,-118.329523
"Carney's Diner, closer, Sunset Boulevard, Hollywood, California",https://cdn.loc.gov/service/pnp/mrg/01200/01266v.jpg,California,Hollywood,34.0980031,-118.329523
"Carney's Express, same place, angle 2, Sunset Boulevard, Hollywood, California",https://cdn.loc.gov/service/pnp/mrg/01200/01267v.jpg,California,Hollywood,34.0980031,-118.329523
"Bob's Big Boy statue sign, closer view, La Cienega Boulevard, Los Angeles, California",https://cdn.loc.gov/service/pnp/mrg/01500/01582v.jpg,California,Los Angeles,34.0536909,-118.242766
"Old Klamath Smoke House & Market sign, Route 101, Klamath, California",https://cdn.loc.gov/service/pnp/mrg/02300/02394v.jpg,California,Klamath,41.5265092,-124.038406
"Legend of Big Foot Gift Shop sign, Route 101, Garberville, California",https://cdn.loc.gov/service/pnp/mrg/02300/02395v.jpg,California,Garberville,40.100569,-123.796139
"Grandfather Tree billboard, Route 101, Garberville, California",https://cdn.loc.gov/service/pnp/mrg/02300/02396v.jpg,California,Garberville,40.100569,-123.796139
"Wheel in mini Mart sign, 24 Hour Art Show, Cabazon, California",https://cdn.loc.gov/service/pnp/mrg/02300/02398v.jpg,California,Cabazon,33.9090305,-116.7795345
"Grandfather Tree entrance, Route 101, Garberville, California",https://cdn.loc.gov/service/pnp/mrg/02400/02400v.jpg,California,Garberville,40.100569,-123.796139
"Candy House, Castle Amusement Park mini golf, Polk Street, Riverside, California",https://cdn.loc.gov/service/pnp/mrg/03100/03165v.jpg,California,Riverside,33.9824949,-117.374238
"Mission, Castle Amusement Park mini golf, Polk Street, Riverside, California",https://cdn.loc.gov/service/pnp/mrg/03100/03166v.jpg,California,Riverside,33.9824949,-117.374238
"Seating and landscape, vertical, Castle Amusement Park mini golf, Polk Street, Riverside, California",https://cdn.loc.gov/service/pnp/mrg/03100/03167v.jpg,California,Riverside,33.9824949,-117.374238
"Fountain and haunted house, Castle Amusement Park mini golf, Polk Street, Riverside, California",https://cdn.loc.gov/service/pnp/mrg/03100/03168v.jpg,California,Riverside,33.9824949,-117.374238
"Seating and landscape, Castle Amusement Park mini golf, Polk Street, Riverside, California",https://cdn.loc.gov/service/pnp/mrg/03100/03169v.jpg,California,Riverside,33.9824949,-117.374238
"Mosque, Castle Park Golf, Redondo Beach, California",https://cdn.loc.gov/service/pnp/mrg/03100/03170v.jpg,California,Redondo Beach,33.8398289,-118.3845942
"Castle overall, Castle Park Golf, Sherman Oaks, California",https://cdn.loc.gov/service/pnp/mrg/03100/03175v.jpg,California,Sherman Oaks,34.1508718,-118.448986
"Castle overall 2, Castle Park Golf, Sherman Oaks, California",https://cdn.loc.gov/service/pnp/mrg/03100/03176v.jpg,California,Sherman Oaks,34.1508718,-118.448986
"Castle overall 3, Castle Park Golf, Sherman Oaks, California",https://cdn.loc.gov/service/pnp/mrg/03100/03177v.jpg,California,Sherman Oaks,34.1508718,-118.448986
"Watch tower, Castle Park Golf, Sherman Oaks, California",https://cdn.loc.gov/service/pnp/mrg/03100/03178v.jpg,California,Sherman Oaks,34.1508718,-118.448986
"Haunted house, Castle Park Golf, Sherman Oaks, California",https://cdn.loc.gov/service/pnp/mrg/03100/03179v.jpg,California,Sherman Oaks,34.1508718,-118.448986
"Entrance, Castle Park Golf, Sherman Oaks, California",https://cdn.loc.gov/service/pnp/mrg/03100/03180v.jpg,California,Sherman Oaks,34.1508718,-118.448986
"Skeet ball hole, Castle Park Golf, Sherman Oaks, California",https://cdn.loc.gov/service/pnp/mrg/03100/03181v.jpg,California,Sherman Oaks,34.1508718,-118.448986
"Castle overall 4, Castle Park Golf, Sherman Oaks, California",https://cdn.loc.gov/service/pnp/mrg/03100/03182v.jpg,California,Sherman Oaks,34.1508718,-118.448986
"Straight lane hole, Castle Park Golf, Sherman Oaks, California",https://cdn.loc.gov/service/pnp/mrg/03100/03183v.jpg,California,Sherman Oaks,34.1508718,-118.448986
"Square lane hole, Castle Park Golf, Sherman Oaks, California",https://cdn.loc.gov/service/pnp/mrg/03100/03184v.jpg,California,Sherman Oaks,34.1508718,-118.448986
"Two holes view, Castle Park Golf, Sherman Oaks, California",https://cdn.loc.gov/service/pnp/mrg/03100/03185v.jpg,California,Sherman Oaks,34.1508718,-118.448986
"Two holes view 2, Castle Park Golf, Sherman Oaks, California",https://cdn.loc.gov/service/pnp/mrg/03100/03186v.jpg,California,Sherman Oaks,34.1508718,-118.448986
"Stars and moon hole view 1, Castle Park Golf, Sherman Oaks, California",https://cdn.loc.gov/service/pnp/mrg/03100/03187v.jpg,California,Sherman Oaks,34.1508718,-118.448986
"Stars and moon hole view 2, Castle Park Golf, Sherman Oaks, California",https://cdn.loc.gov/service/pnp/mrg/03100/03188v.jpg,California,Sherman Oaks,34.1508718,-118.448986
"Two holes view 3, Castle Park Golf, Sherman Oaks, California",https://cdn.loc.gov/service/pnp/mrg/03100/03189v.jpg,California,Sherman Oaks,34.1508718,-118.448986
"Water, ship and castle overall, Castle Park Golf, Sherman Oaks, California",https://cdn.loc.gov/service/pnp/mrg/03100/03190v.jpg,California,Sherman Oaks,34.1508718,-118.448986
"Stars and moon hole view 3, Castle Park Golf, Sherman Oaks, California",https://cdn.loc.gov/service/pnp/mrg/03100/03191v.jpg,California,Sherman Oaks,34.1508718,-118.448986
"Haunted house, Castle Park Golf, Polk Street, Riverside, California",https://cdn.loc.gov/service/pnp/mrg/03100/03192v.jpg,California,Riverside,33.9824949,-117.374238
"Overall view, Castle Park Golf, Redondo Beach, California",https://cdn.loc.gov/service/pnp/mrg/03100/03193v.jpg,California,Redondo Beach,33.8398289,-118.3845942
"16th hole with spire, Castle Park Golf, Redondo Beach, California",https://cdn.loc.gov/service/pnp/mrg/03100/03194v.jpg,California,Redondo Beach,33.8398289,-118.3845942
"Entrance, Storybook Land Golf, Clairmont Mesa Boulevard, San Diego, California",https://cdn.loc.gov/service/pnp/mrg/03100/03195v.jpg,California,San Diego,32.7174202,-117.162772
"Eiffel Tower, Storybook Land Golf, Clairmont Mesa Boulevard, San Diego, California",https://cdn.loc.gov/service/pnp/mrg/03100/03196v.jpg,California,San Diego,32.7174202,-117.162772
"Castle hole, Storybook Land Golf, Clairmont Mesa Boulevard, San Diego, California",https://cdn.loc.gov/service/pnp/mrg/03100/03197v.jpg,California,San Diego,32.7174202,-117.162772
"House, Storybook Land Golf, Clairmont Mesa Boulevard, San Diego, California",https://cdn.loc.gov/service/pnp/mrg/03100/03199v.jpg,California,San Diego,32.7174202,-117.162772
"Obelisk, Storybook Land Golf, Clairmont Mesa Boulevard, San Diego, California",https://cdn.loc.gov/service/pnp/mrg/03200/03200v.jpg,California,San Diego,32.7174202,-117.162772
"Castle hole, view 2, Storybook Land Golf, Clairmont Mesa Boulevard, San Diego, California",https://cdn.loc.gov/service/pnp/mrg/03200/03201v.jpg,California,San Diego,32.7174202,-117.162772
"Trading post, Storybook Land Golf, Clairmont Mesa Boulevard, San Diego, California",https://cdn.loc.gov/service/pnp/mrg/03200/03202v.jpg,California,San Diego,32.7174202,-117.162772
"Windmill, Green Pines mini golf, Redding, California",https://cdn.loc.gov/service/pnp/mrg/03200/03203v.jpg,California,Redding,40.5863563,-122.391675
"Lighthouse, Green Pines mini golf, Redding, California",https://cdn.loc.gov/service/pnp/mrg/03200/03204v.jpg,California,Redding,40.5863563,-122.391675
"Castle, Green Pines mini golf, Redding, California",https://cdn.loc.gov/service/pnp/mrg/03200/03205v.jpg,California,Redding,40.5863563,-122.391675
"Two level green, Green Pines mini golf, Redding, California",https://cdn.loc.gov/service/pnp/mrg/03200/03206v.jpg,California,Redding,40.5863563,-122.391675
"Sign, front, Green Pines mini golf, Redding, California",https://cdn.loc.gov/service/pnp/mrg/03200/03207v.jpg,California,Redding,40.5863563,-122.391675
"Sign, back, Green Pines mini golf, Redding, California",https://cdn.loc.gov/service/pnp/mrg/03200/03208v.jpg,California,Redding,40.5863563,-122.391675
"Pine hole marker #16, Green Pines mini golf, Redding, California",https://cdn.loc.gov/service/pnp/mrg/03200/03209v.jpg,California,Redding,40.5863563,-122.391675
"Windmill, Golf N' Stuff, Ventura, California",https://cdn.loc.gov/service/pnp/mrg/03200/03296v.jpg,California,Ventura,34.4458248,-119.0779359
"Overall 1, Golf N' Stuff, Ventura, California",https://cdn.loc.gov/service/pnp/mrg/03200/03297v.jpg,California,Ventura,34.4458248,-119.0779359
"Overall 2, Golf N' Stuff, Ventura, California",https://cdn.loc.gov/service/pnp/mrg/03200/03298v.jpg,California,Ventura,34.4458248,-119.0779359
"Castle, Golf N' Stuff, Ventura, California",https://cdn.loc.gov/service/pnp/mrg/03200/03299v.jpg,California,Ventura,34.4458248,-119.0779359
"Pueblo house, Golf N' Stuff, Ventura, California",https://cdn.loc.gov/service/pnp/mrg/03300/03300v.jpg,California,Ventura,34.4458248,-119.0779359
"Three podium hole, Golf N' Stuff, Ventura, California",https://cdn.loc.gov/service/pnp/mrg/03300/03301v.jpg,California,Ventura,34.4458248,-119.0779359
"Pump house hole, Fountain Valley mini golf, Fountain Valley, California",https://cdn.loc.gov/service/pnp/mrg/03300/03302v.jpg,California,Fountain Valley,33.7038145,-117.9627349
"Windmill 1, Fountain Valley mini golf, Fountain Valley, California",https://cdn.loc.gov/service/pnp/mrg/03300/03303v.jpg,California,Fountain Valley,33.7038145,-117.9627349
"Windmill 2, Fountain Valley mini golf, Fountain Valley, California",https://cdn.loc.gov/service/pnp/mrg/03300/03304v.jpg,California,Fountain Valley,33.7038145,-117.9627349
"Castle, Fountain Valley mini golf, Fountain Valley, California",https://cdn.loc.gov/service/pnp/mrg/03300/03305v.jpg,California,Fountain Valley,33.7038145,-117.9627349
"USA Shuttle, Fountain Valley mini golf, Fountain Valley, California",https://cdn.loc.gov/service/pnp/mrg/03300/03306v.jpg,California,Fountain Valley,33.7038145,-117.9627349
"Tiger hole, Fountain Valley mini golf, Fountain Valley, California",https://cdn.loc.gov/service/pnp/mrg/03300/03307v.jpg,California,Fountain Valley,33.7038145,-117.9627349
"Overall, Fountain Valley mini golf, Fountain Valley, California",https://cdn.loc.gov/service/pnp/mrg/03300/03308v.jpg,California,Fountain Valley,33.7038145,-117.9627349
"Overall, Fountain Valley mini golf, Fountain Valley, California",https://cdn.loc.gov/service/pnp/mrg/03300/03309v.jpg,California,Fountain Valley,33.7038145,-117.9627349
"Clock tower, Fountain Valley mini golf, Fountain Valley, California",https://cdn.loc.gov/service/pnp/mrg/03300/03310v.jpg,California,Fountain Valley,33.7038145,-117.9627349
"Mission San Juan view 1, Fountain Valley mini golf, Fountain Valley, California",https://cdn.loc.gov/service/pnp/mrg/03300/03311v.jpg,California,Fountain Valley,33.7038145,-117.9627349
"Mission San Juan view 2, Fountain Valley mini golf, Fountain Valley, California",https://cdn.loc.gov/service/pnp/mrg/03300/03312v.jpg,California,Fountain Valley,33.7038145,-117.9627349
"Circular hole with stone wall, Fountain Valley mini golf, Fountain Valley, California",https://cdn.loc.gov/service/pnp/mrg/03300/03313v.jpg,California,Fountain Valley,33.7038145,-117.9627349
"Circular hole detail, Fountain Valley mini golf, Fountain Valley, California",https://cdn.loc.gov/service/pnp/mrg/03300/03314v.jpg,California,Fountain Valley,33.7038145,-117.9627349
"Castle Far Away, Blackbeard's mini golf, Fresno, California",https://cdn.loc.gov/service/pnp/mrg/03300/03334v.jpg,California,Fresno,36.7394421,-119.78483
"Castle, Blackbeard's mini golf, Fresno, California",https://cdn.loc.gov/service/pnp/mrg/03300/03335v.jpg,California,Fresno,36.7394421,-119.78483
"Windmill, Blackbeard's mini golf, Fresno, California",https://cdn.loc.gov/service/pnp/mrg/03300/03336v.jpg,California,Fresno,36.7394421,-119.78483
"U.S. Telegraph, Blackbeard's mini golf, Fresno, California",https://cdn.loc.gov/service/pnp/mrg/03300/03337v.jpg,California,Fresno,36.7394421,-119.78483
"Big Ben, Blackbeard's mini golf, Fresno, California",https://cdn.loc.gov/service/pnp/mrg/03300/03338v.jpg,California,Fresno,36.7394421,-119.78483
"Star and two patches, Blackbeard's mini golf, Fresno, California",https://cdn.loc.gov/service/pnp/mrg/03300/03339v.jpg,California,Fresno,36.7394421,-119.78483
"Star hole, Blackbeard's mini golf, Fresno, California",https://cdn.loc.gov/service/pnp/mrg/03300/03340v.jpg,California,Fresno,36.7394421,-119.78483
"Overall view, Blackbeard's mini golf, Fresno, California",https://cdn.loc.gov/service/pnp/mrg/03300/03341v.jpg,California,Fresno,36.7394421,-119.78483
"Crazy House, vertical, Blackbeard's mini golf, Fresno, California",https://cdn.loc.gov/service/pnp/mrg/03300/03342v.jpg,California,Fresno,36.7394421,-119.78483
"Crazy House, horizontal, Blackbeard's mini golf, Fresno, California",https://cdn.loc.gov/service/pnp/mrg/03300/03343v.jpg,California,Fresno,36.7394421,-119.78483
"Concrete decor, Blackbeard's mini golf, Fresno, California",https://cdn.loc.gov/service/pnp/mrg/03300/03344v.jpg,California,Fresno,36.7394421,-119.78483
"Six bumpers, Blackbeard's mini golf, Fresno, California",https://cdn.loc.gov/service/pnp/mrg/03300/03345v.jpg,California,Fresno,36.7394421,-119.78483
"Lighthouse, Blackbeard's mini golf, Fresno, California",https://cdn.loc.gov/service/pnp/mrg/03300/03346v.jpg,California,Fresno,36.7394421,-119.78483
"Lighthouse view 2, Blackbeard's mini golf, Fresno, California",https://cdn.loc.gov/service/pnp/mrg/03300/03347v.jpg,California,Fresno,36.7394421,-119.78483
"Chicks, Blackbeard's mini golf, Fresno, California",https://cdn.loc.gov/service/pnp/mrg/03300/03348v.jpg,California,Fresno,36.7394421,-119.78483
"Carpet detail, Blackbeard's mini golf, Fresno, California",https://cdn.loc.gov/service/pnp/mrg/03300/03349v.jpg,California,Fresno,36.7394421,-119.78483
"Entrance, Castle Park Golf, Sherman Oaks, California",https://cdn.loc.gov/service/pnp/mrg/03300/03379v.jpg,California,Sherman Oaks,34.1508718,-118.448986
"Castle, Pomona Valley Golf, 7th Street, Upland, California",https://cdn.loc.gov/service/pnp/mrg/03300/03383v.jpg,California,Upland,34.09751,-117.6483876
"Boulder, Castle Amusement Park mini golf, Riverside, California",https://cdn.loc.gov/service/pnp/mrg/03400/03481v.jpg,California,Riverside,33.9824949,-117.374238
"Old Klamath Smoke House and Market, Route 101, Klamath, California",https://cdn.loc.gov/service/pnp/mrg/03500/03532v.jpg,California,Klamath,41.5265092,-124.038406
"Brontosaurus, Prehistoric Museum, Cabazon, California",https://cdn.loc.gov/service/pnp/mrg/03500/03562v.jpg,California,Cabazon,33.9090305,-116.7795345
"Legend of Big Foot Gift Shop, Route 101, Garberville, California",https://cdn.loc.gov/service/pnp/mrg/03500/03575v.jpg,California,Garberville,40.100569,-123.796139
"Pumpkin sign, Route 99, Dairyville, California",https://cdn.loc.gov/service/pnp/mrg/03500/03579v.jpg,California,Dairyville,40.1298788,-122.1211032
"Brontosaurus back view, Prehistoric Museum, Cabazon, California",https://cdn.loc.gov/service/pnp/mrg/03600/03608v.jpg,California,Cabazon,33.9090305,-116.7795345
"Paul Bunyan and Babe angle 1, Trees of Mystery, Route 101, Klamath, California",https://cdn.loc.gov/service/pnp/mrg/03600/03626v.jpg,California,Klamath,41.5265092,-124.038406
"Three cabins, Wigwam Village #7, Route 66, Rialto, California",https://cdn.loc.gov/service/pnp/mrg/03700/03722v.jpg,California,Rialto,34.1064001,-117.3703235
"Giant artichoke, Horizontal, Route 183., Castroville, California",https://cdn.loc.gov/service/pnp/mrg/03700/03757v.jpg,California,Castroville,36.7657904,-121.758005
"Lighthouse at Neighborhood Church, Route 101, Orick, California",https://cdn.loc.gov/service/pnp/mrg/03700/03787v.jpg,California,Orick,41.2867896,-124.0597937
"Municipal Building, Santa Barbara, California",https://cdn.loc.gov/service/pnp/mrg/03800/03861v.jpg,California,Santa Barbara,34.4221319,-119.702667
"Municipal Building, Santa Barbara, California",https://cdn.loc.gov/service/pnp/mrg/03800/03862v.jpg,California,Santa Barbara,34.4221319,-119.702667
"Municipal Building, Santa Barbara, California",https://cdn.loc.gov/service/pnp/mrg/03800/03863v.jpg,California,Santa Barbara,34.4221319,-119.702667
"Municipal Building, Santa Barbara, California",https://cdn.loc.gov/service/pnp/mrg/03800/03864v.jpg,California,Santa Barbara,34.4221319,-119.702667
"Municipal Building, Santa Barbara, California",https://cdn.loc.gov/service/pnp/mrg/03800/03865v.jpg,California,Santa Barbara,34.4221319,-119.702667
"Municipal Building, Santa Barbara, California",https://cdn.loc.gov/service/pnp/mrg/03800/03866v.jpg,California,Santa Barbara,34.4221319,-119.702667
"Municipal Building, Santa Barbara, California",https://cdn.loc.gov/service/pnp/mrg/03800/03867v.jpg,California,Santa Barbara,34.4221319,-119.702667
"Courthouse, Court Street, Visalia, California",https://cdn.loc.gov/service/pnp/mrg/03900/03902v.jpg,California,Visalia,36.3302284,-119.292058
"Public parking structure, Sutter Street, Stockton, California",https://cdn.loc.gov/service/pnp/mrg/03900/03960v.jpg,California,Stockton,37.9577016,-121.290779
"Public parking structure, Sutter Street, Stockton, California",https://cdn.loc.gov/service/pnp/mrg/03900/03961v.jpg,California,Stockton,37.9577016,-121.290779
"California Bridge Center, 945 North Fairfax, Los Angeles, California",https://cdn.loc.gov/service/pnp/mrg/03900/03985v.jpg,California,Los Angeles,34.0536909,-118.242766
"Center Fire Station, H Street, Bakersfield, California",https://cdn.loc.gov/service/pnp/mrg/03900/03988v.jpg,California,Bakersfield,35.3738712,-119.019463
"Carnegie Library (museum), F Street, Eureka, California",https://cdn.loc.gov/service/pnp/mrg/04000/04001v.jpg,California,Eureka,40.8018746,-124.1707558
"Bank, Mountain Mike's Pizza, Broadway, King City, California",https://cdn.loc.gov/service/pnp/mrg/04000/04016v.jpg,California,King City,36.2135291,-121.1247365
"Wells Fargo Bank, Alta Street, Gonzales, California",https://cdn.loc.gov/service/pnp/mrg/04000/04017v.jpg,California,Gonzales,36.5080741,-121.4447041
"American Trust Co. credit union, column detail, Petaluma Boulevard and Western Avenue, Petaluma, California",https://cdn.loc.gov/service/pnp/mrg/04000/04029v.jpg,California,Petaluma,38.2325829,-122.636465
"American Trust Co. credit union, Petaluma Boulevard and Western Avenue, Petaluma, California",https://cdn.loc.gov/service/pnp/mrg/04000/04030v.jpg,California,Petaluma,38.2325829,-122.636465
"Old bank, Petaluma Boulevard and Western Avenue, Petaluma, California",https://cdn.loc.gov/service/pnp/mrg/04000/04038v.jpg,California,Petaluma,38.2325829,-122.636465
"Bank of Eureka and Savings Bank of Humboldt County, Third and I Streets, Eureka, California",https://cdn.loc.gov/service/pnp/mrg/04000/04041v.jpg,California,Eureka,40.8018746,-124.1707558
"Bank of Eureka and Savings Bank of Humboldt County, Third and I Streets, Eureka, California",https://cdn.loc.gov/service/pnp/mrg/04000/04042v.jpg,California,Eureka,40.8018746,-124.1707558
"Bank of Eureka and Savings Bank of Humboldt County, detail, Third and I Streets, Eureka, California",https://cdn.loc.gov/service/pnp/mrg/04000/04043v.jpg,California,Eureka,40.8018746,-124.1707558
"Bank of America,Westwood Boulevard and Kinross, Westwood, California",https://cdn.loc.gov/service/pnp/mrg/04000/04080v.jpg,California,Westwood,34.0668947,-118.439944
"Masonic Temple (1920), door detail, Lassen Street, Susanville, California",https://cdn.loc.gov/service/pnp/mrg/04100/04136v.jpg,California,Susanville,40.4162842,-120.653006
"Masonic Temple (1924), pediment detail, Lassen Street, Susanville, California",https://cdn.loc.gov/service/pnp/mrg/04100/04137v.jpg,California,Susanville,40.4162842,-120.653006
"Masonic Temple (1924), pediment detail, Lassen Street, Susanville, California",https://cdn.loc.gov/service/pnp/mrg/04100/04138v.jpg,California,Susanville,40.4162842,-120.653006
"Masonic Temple, Petaluma Boulevard and Western Avenue, Petaluma, California",https://cdn.loc.gov/service/pnp/mrg/04100/04147v.jpg,California,Petaluma,38.2325829,-122.636465
"Tom's Auto Body, 7229 West Melrose, Los Angeles, California",https://cdn.loc.gov/service/pnp/mrg/04200/04204v.jpg,California,Los Angeles,34.0536909,-118.242766
"Elmore Pharmacy sign, Walnut Street, Red Bluff, California",https://cdn.loc.gov/service/pnp/mrg/04200/04212v.jpg,California,Red Bluff,40.1784279,-122.235923
"Greyhound Bus sign, Gabilan Street, Salinas, California",https://cdn.loc.gov/service/pnp/mrg/04200/04231v.jpg,California,Salinas,36.6744117,-121.655037
"Korea Times Building, Vermont Avenue, Los Angeles, California",https://cdn.loc.gov/service/pnp/mrg/04200/04272v.jpg,California,Los Angeles,34.0536909,-118.242766
"Crossroads of the World, Vine Street, Hollywood, California",https://cdn.loc.gov/service/pnp/mrg/04300/04319v.jpg,California,Hollywood,34.0980031,-118.329523
"Crossroads of the World, Hollywood Boulevard, side porthole, Hollywood, California",https://cdn.loc.gov/service/pnp/mrg/04300/04320v.jpg,California,Hollywood,34.0980031,-118.329523
"Crossroads of the World, Hollywood Boulevard, Hollywood, California",https://cdn.loc.gov/service/pnp/mrg/04300/04321v.jpg,California,Hollywood,34.0980031,-118.329523
"Crossroads of the World, Sunset Boulevard, Hollywood, California",https://cdn.loc.gov/service/pnp/mrg/04300/04322v.jpg,California,Hollywood,34.0980031,-118.329523
"Barber-Levy Shop, El Cajon Road, San Diego, California",https://cdn.loc.gov/service/pnp/mrg/04300/04324v.jpg,California,San Diego,32.7174202,-117.162772
"Dellard Furniture Imports, Los Angeles, California",https://cdn.loc.gov/service/pnp/mrg/04300/04357v.jpg,California,Los Angeles,34.0536909,-118.242766
"Dellard Furniture Imports, Los Angeles, California",https://cdn.loc.gov/service/pnp/mrg/04300/04358v.jpg,California,Los Angeles,34.0536909,-118.242766
"The Craft Company, Red Bluff, California",https://cdn.loc.gov/service/pnp/mrg/04300/04364v.jpg,California,Red Bluff,40.1784279,-122.235923
"The Craft Company, Red Bluff, California",https://cdn.loc.gov/service/pnp/mrg/04300/04366v.jpg,California,Red Bluff,40.1784279,-122.235923
"Beverly Upholstery, Los Angeles, California",https://cdn.loc.gov/service/pnp/mrg/04300/04378v.jpg,California,Los Angeles,34.0536909,-118.242766
"Roth Draperies, Los Angeles, California",https://cdn.loc.gov/service/pnp/mrg/04300/04379v.jpg,California,Los Angeles,34.0536909,-118.242766
"Cafe Waterfront, Eureka, California",https://cdn.loc.gov/service/pnp/mrg/04300/04393v.jpg,California,Eureka,40.8018746,-124.1707558
"Blue Fox Lounge, Bakersfield, California",https://cdn.loc.gov/service/pnp/mrg/04400/04403v.jpg,California,Bakersfield,35.3738712,-119.019463
"Strip mall, San Bernardino, California",https://cdn.loc.gov/service/pnp/mrg/04400/04411v.jpg,California,San Bernardino,34.8253019,-116.0833144
"Strip mall, La Mesa, California",https://cdn.loc.gov/service/pnp/mrg/04400/04412v.jpg,California,La Mesa,32.7678288,-117.0230839
"Carousel Mall, San Bernardino, California",https://cdn.loc.gov/service/pnp/mrg/04400/04413v.jpg,California,San Bernardino,34.8253019,-116.0833144
"Carousel Mall, San Bernardino, California",https://cdn.loc.gov/service/pnp/mrg/04400/04414v.jpg,California,San Bernardino,34.8253019,-116.0833144
"Carousel Mall, San Bernardino, California",https://cdn.loc.gov/service/pnp/mrg/04400/04415v.jpg,California,San Bernardino,34.8253019,-116.0833144
"Jeffrey Anderson Jewelry, Eureka, California",https://cdn.loc.gov/service/pnp/mrg/04400/04438v.jpg,California,Eureka,40.8018746,-124.1707558
"Jeffrey Anderson Jewelry, Eureka, California",https://cdn.loc.gov/service/pnp/mrg/04400/04439v.jpg,California,Eureka,40.8018746,-124.1707558
"Vintage Bank Antiques, Petaluma, California",https://cdn.loc.gov/service/pnp/mrg/04400/04488v.jpg,California,Petaluma,38.2325829,-122.636465
"Law office, Stockton, California",https://cdn.loc.gov/service/pnp/mrg/04500/04510v.jpg,California,Stockton,37.9577016,-121.290779
"Bed Bath & Beyond, San Luis Obispo, California",https://cdn.loc.gov/service/pnp/mrg/04500/04536v.jpg,California,San Luis Obispo,35.3540209,-120.375716
"Bed Bath & Beyond, San Luis Obispo, California",https://cdn.loc.gov/service/pnp/mrg/04500/04537v.jpg,California,San Luis Obispo,35.3540209,-120.375716
"Harris Department Store, San Bernardino, California",https://cdn.loc.gov/service/pnp/mrg/04500/04571v.jpg,California,San Bernardino,34.8253019,-116.0833144
"Kelli Clothing, Merced, California",https://cdn.loc.gov/service/pnp/mrg/04500/04572v.jpg,California,Merced,37.1641544,-120.7678602
"Palisade Garden Roller Skating, San Diego, California",https://cdn.loc.gov/service/pnp/mrg/04600/04604v.jpg,California,San Diego,32.7174202,-117.162772
"Palisade Garden Roller Skating, San Diego, California",https://cdn.loc.gov/service/pnp/mrg/04600/04605v.jpg,California,San Diego,32.7174202,-117.162772
"Palisade Garden Roller Skating, San Diego, California",https://cdn.loc.gov/service/pnp/mrg/04600/04606v.jpg,California,San Diego,32.7174202,-117.162772
"Palisade Garden Roller Skating, San Diego, California",https://cdn.loc.gov/service/pnp/mrg/04600/04607v.jpg,California,San Diego,32.7174202,-117.162772
"Palisade Garden Roller Skating, San Diego, California",https://cdn.loc.gov/service/pnp/mrg/04600/04608v.jpg,California,San Diego,32.7174202,-117.162772
"Beacon Liquors, West Los Angeles, California",https://cdn.loc.gov/service/pnp/mrg/04600/04620v.jpg,California,West Los Angeles,34.0468546,-118.430254
"Helms Bakery, Culver City, California",https://cdn.loc.gov/service/pnp/mrg/04600/04632v.jpg,California,Culver City,34.0211224,-118.396466
"Helms Bakery, Culver City, California",https://cdn.loc.gov/service/pnp/mrg/04600/04633v.jpg,California,Culver City,34.0211224,-118.396466
"Helms Bakery, Culver City, California",https://cdn.loc.gov/service/pnp/mrg/04600/04634v.jpg,California,Culver City,34.0211224,-118.396466
"American Fruit Growers, Inc., Riverside, California",https://cdn.loc.gov/service/pnp/mrg/04600/04638v.jpg,California,Riverside,33.9824949,-117.374238
"Dutch Ice, Manteca, California",https://cdn.loc.gov/service/pnp/mrg/04600/04642v.jpg,California,Manteca,37.7986184,-121.2117148
"Palm Market, Oxnard, California",https://cdn.loc.gov/service/pnp/mrg/04600/04671v.jpg,California,Oxnard,34.1976308,-119.180381
"Baer's Market, Santa Monica, California",https://cdn.loc.gov/service/pnp/mrg/04600/04693v.jpg,California,Santa Monica,34.0194704,-118.491227
"Foxy's Hair Studio, Bakersfield, California",https://cdn.loc.gov/service/pnp/mrg/04700/04703v.jpg,California,Bakersfield,35.3738712,-119.019463
"Foxy's Hair Studio, Bakersfield, California",https://cdn.loc.gov/service/pnp/mrg/04700/04704v.jpg,California,Bakersfield,35.3738712,-119.019463
"Easton's Gym, Los Angeles, California",https://cdn.loc.gov/service/pnp/mrg/04700/04725v.jpg,California,Los Angeles,34.0536909,-118.242766
"Rock Stram Baths, Los Angeles, California",https://cdn.loc.gov/service/pnp/mrg/04700/04726v.jpg,California,Los Angeles,34.0536909,-118.242766
"Barber pole, San Diego, California",https://cdn.loc.gov/service/pnp/mrg/04700/04755v.jpg,California,San Diego,32.7174202,-117.162772
"Razor's Edge Barber Shop, Williams, California",https://cdn.loc.gov/service/pnp/mrg/04700/04767v.jpg,California,Williams,39.1546844,-122.1498204
"Ber Neice's Barber Shop, San Bernardino, California",https://cdn.loc.gov/service/pnp/mrg/04700/04772v.jpg,California,San Bernardino,34.8253019,-116.0833144
"Barber-Levy Shop, San Diego, California",https://cdn.loc.gov/service/pnp/mrg/04700/04796v.jpg,California,San Diego,32.7174202,-117.162772
"Tire Man, Venice, California",https://cdn.loc.gov/service/pnp/mrg/04800/04810v.jpg,California,Venice,33.995044,-118.4668875
"Citizen's Bank of Paso Robles sign, Paso Robles, California",https://cdn.loc.gov/service/pnp/mrg/04800/04827v.jpg,California,Paso Robles,35.6262618,-120.6901319
"Tower Bowl, San Luis Obispo, California",https://cdn.loc.gov/service/pnp/mrg/04800/04837v.jpg,California,San Luis Obispo,35.3540209,-120.375716
"Orange Bowl sign, Rialto, California",https://cdn.loc.gov/service/pnp/mrg/04800/04883v.jpg,California,Rialto,34.1064001,-117.3703235
"The Tower Bowl, San Diego, California",https://cdn.loc.gov/service/pnp/mrg/04800/04897v.jpg,California,San Diego,32.7174202,-117.162772
"The Tower Bowl, San Diego, California",https://cdn.loc.gov/service/pnp/mrg/04800/04898v.jpg,California,San Diego,32.7174202,-117.162772
"Mendes Park Western Wear sign, Fresno, California",https://cdn.loc.gov/service/pnp/mrg/04900/04911v.jpg,California,Fresno,36.7394421,-119.78483
"Commercial building, Stockton, California",https://cdn.loc.gov/service/pnp/mrg/04900/04960v.jpg,California,Stockton,37.9577016,-121.290779
"Commercial building, Eureka, California",https://cdn.loc.gov/service/pnp/mrg/04900/04966v.jpg,California,Eureka,40.8018746,-124.1707558
"Commercial building, Eureka, California",https://cdn.loc.gov/service/pnp/mrg/04900/04967v.jpg,California,Eureka,40.8018746,-124.1707558
"100F Building, Gonzales, California",https://cdn.loc.gov/service/pnp/mrg/04900/04975v.jpg,California,Gonzales,36.5080741,-121.4447041
"Parkhurst Building, Ocean Park, Santa Monica, California",https://cdn.loc.gov/service/pnp/mrg/04900/04997v.jpg,California,Santa Monica,34.0194704,-118.491227
"Storefront, Santa Monica, California",https://cdn.loc.gov/service/pnp/mrg/04900/04998v.jpg,California,Santa Monica,34.0194704,-118.491227
"Shine Parlor, Bakersfield, California",https://cdn.loc.gov/service/pnp/mrg/05000/05000v.jpg,California,Bakersfield,35.3738712,-119.019463
"Parkhurst Building, Ocean Park, Santa Monica, California",https://cdn.loc.gov/service/pnp/mrg/05000/05025v.jpg,California,Santa Monica,34.0194704,-118.491227
"Parkhurst Building, Ocean Park, Santa Monica, California",https://cdn.loc.gov/service/pnp/mrg/05000/05026v.jpg,California,Santa Monica,34.0194704,-118.491227
"Shops, Venice, California",https://cdn.loc.gov/service/pnp/mrg/05000/05050v.jpg,California,Venice,33.995044,-118.4668875
"Three stores, La Mesa, California",https://cdn.loc.gov/service/pnp/mrg/05100/05118v.jpg,California,La Mesa,32.7678288,-117.0230839
"Hillcrest Arch, San Diego, California",https://cdn.loc.gov/service/pnp/mrg/05100/05122v.jpg,California,San Diego,32.7174202,-117.162772
"United Equipment, Turlock, California",https://cdn.loc.gov/service/pnp/mrg/05100/05143v.jpg,California,Turlock,37.4946568,-120.8465941
"United Equipment, Turlock, California",https://cdn.loc.gov/service/pnp/mrg/05100/05144v.jpg,California,Turlock,37.4946568,-120.8465941
"United Equipment, Turlock, California",https://cdn.loc.gov/service/pnp/mrg/05100/05145v.jpg,California,Turlock,37.4946568,-120.8465941
"Windmire Building, Solvang, California",https://cdn.loc.gov/service/pnp/mrg/05100/05152v.jpg,California,Solvang,34.5960774,-120.1381144
"Sodaro's Furniture, Joshua Tree, California",https://cdn.loc.gov/service/pnp/mrg/05100/05167v.jpg,California,Joshua Tree,34.1233803,-116.3128792
"Atwater Signal-Merced Daily Sun Star, Atwater, California",https://cdn.loc.gov/service/pnp/mrg/05100/05186v.jpg,California,Atwater,37.3477174,-120.609084
"Atwater Signal-Merced Daily Sun Star, Atwater, California",https://cdn.loc.gov/service/pnp/mrg/05100/05187v.jpg,California,Atwater,37.3477174,-120.609084
"Union Oil, West Los Angeles, California",https://cdn.loc.gov/service/pnp/mrg/05200/05209v.jpg,California,West Los Angeles,34.0468546,-118.430254
"Union 76, Cucamonga, California",https://cdn.loc.gov/service/pnp/mrg/05200/05212v.jpg,California,Cucamonga,34.0991995,-117.6022102
"Union 76, Cucamonga, California",https://cdn.loc.gov/service/pnp/mrg/05200/05213v.jpg,California,Cucamonga,34.0991995,-117.6022102
"Old gas station, Beaumont, California",https://cdn.loc.gov/service/pnp/mrg/05200/05228v.jpg,California,Beaumont,33.9299925,-116.9763092
"Old gas station, Beaumont, California",https://cdn.loc.gov/service/pnp/mrg/05200/05229v.jpg,California,Beaumont,33.9299925,-116.9763092
"Old gas station, Beaumont, California",https://cdn.loc.gov/service/pnp/mrg/05200/05230v.jpg,California,Beaumont,33.9299925,-116.9763092
"Old gas station, Beaumont, California",https://cdn.loc.gov/service/pnp/mrg/05200/05231v.jpg,California,Beaumont,33.9299925,-116.9763092
"Chevron station, Brentwood, California",https://cdn.loc.gov/service/pnp/mrg/05200/05232v.jpg,California,Brentwood,37.9317766,-121.696026
"Chevron station, Brentwood, California",https://cdn.loc.gov/service/pnp/mrg/05200/05233v.jpg,California,Brentwood,37.9317766,-121.696026
"Chevron station, Brentwood, California",https://cdn.loc.gov/service/pnp/mrg/05200/05234v.jpg,California,Brentwood,37.9317766,-121.696026
"Chevron station, Brentwood, California",https://cdn.loc.gov/service/pnp/mrg/05200/05235v.jpg,California,Brentwood,37.9317766,-121.696026
"Chevron station, Brentwood, California",https://cdn.loc.gov/service/pnp/mrg/05200/05236v.jpg,California,Brentwood,37.9317766,-121.696026
"Chevron station, Brentwood, California",https://cdn.loc.gov/service/pnp/mrg/05200/05237v.jpg,California,Brentwood,37.9317766,-121.696026
"Span Colon Gas, Goleta, California",https://cdn.loc.gov/service/pnp/mrg/05200/05238v.jpg,California,Goleta,34.4358295,-119.8276389
"Span Colon Gas, Goleta, California",https://cdn.loc.gov/service/pnp/mrg/05200/05239v.jpg,California,Goleta,34.4358295,-119.8276389
"Span Colon Gas, Goleta, California",https://cdn.loc.gov/service/pnp/mrg/05200/05240v.jpg,California,Goleta,34.4358295,-119.8276389
"Seaside Gas, Los Angeles, California",https://cdn.loc.gov/service/pnp/mrg/05200/05241v.jpg,California,Los Angeles,34.0536909,-118.242766
"Seaside Gas, Los Angeles, California",https://cdn.loc.gov/service/pnp/mrg/05200/05242v.jpg,California,Los Angeles,34.0536909,-118.242766
"Seaside Gas, Los Angeles, California",https://cdn.loc.gov/service/pnp/mrg/05200/05243v.jpg,California,Los Angeles,34.0536909,-118.242766
"Seaside Gas, Los Angeles, California",https://cdn.loc.gov/service/pnp/mrg/05200/05244v.jpg,California,Los Angeles,34.0536909,-118.242766
"Seaside Gas, Los Angeles, California",https://cdn.loc.gov/service/pnp/mrg/05200/05245v.jpg,California,Los Angeles,34.0536909,-118.242766
"Seaside Gas, Los Angeles, California",https://cdn.loc.gov/service/pnp/mrg/05200/05246v.jpg,California,Los Angeles,34.0536909,-118.242766
"Cattoir Texaco, Arroyo Grande, California",https://cdn.loc.gov/service/pnp/mrg/05200/05249v.jpg,California,Arroyo Grande,35.1235374,-120.5785796
"Cattoir Texaco, Arroyo Grande, California",https://cdn.loc.gov/service/pnp/mrg/05200/05250v.jpg,California,Arroyo Grande,35.1235374,-120.5785796
"Cattoir Texaco, Arroyo Grande, California",https://cdn.loc.gov/service/pnp/mrg/05200/05251v.jpg,California,Arroyo Grande,35.1235374,-120.5785796
"Ang's Service Mobil, Los Angeles, California",https://cdn.loc.gov/service/pnp/mrg/05200/05265v.jpg,California,Los Angeles,34.0536909,-118.242766
"Ang's Service Mobil, Los Angeles, California",https://cdn.loc.gov/service/pnp/mrg/05200/05266v.jpg,California,Los Angeles,34.0536909,-118.242766
"Gas station, Culver City, California",https://cdn.loc.gov/service/pnp/mrg/05200/05271v.jpg,California,Culver City,34.0211224,-118.396466
"Richfield Station, Cucamonga, California",https://cdn.loc.gov/service/pnp/mrg/05300/05310v.jpg,California,Cucamonga,34.0991995,-117.6022102
"Richfield Station, Cucamonga, California",https://cdn.loc.gov/service/pnp/mrg/05300/05311v.jpg,California,Cucamonga,34.0991995,-117.6022102
"Richfield Station, Cucamonga, California",https://cdn.loc.gov/service/pnp/mrg/05300/05312v.jpg,California,Cucamonga,34.0991995,-117.6022102
"Richfield Station, Cucamonga, California",https://cdn.loc.gov/service/pnp/mrg/05300/05313v.jpg,California,Cucamonga,34.0991995,-117.6022102
"Realty Staton, Templeton, California",https://cdn.loc.gov/service/pnp/mrg/05300/05314v.jpg,California,Templeton,35.5605315,-120.7007616
"Gas station, Monterey Park, California",https://cdn.loc.gov/service/pnp/mrg/05300/05322v.jpg,California,Monterey Park,34.051522,-118.129807
"World's Largest Redwood Tree Service Station, Ukiah, California",https://cdn.loc.gov/service/pnp/mrg/05300/05343v.jpg,California,Ukiah,39.1501662,-123.2077861
"World's Largest Redwood Tree Service Station, Ukiah, California",https://cdn.loc.gov/service/pnp/mrg/05300/05344v.jpg,California,Ukiah,39.1501662,-123.2077861
"Gas station Church, Pacoima, California",https://cdn.loc.gov/service/pnp/mrg/05300/05372v.jpg,California,Pacoima,34.2625025,-118.427027
"Gas station Church, Pacoima, California",https://cdn.loc.gov/service/pnp/mrg/05300/05373v.jpg,California,Pacoima,34.2625025,-118.427027
"Gas station Church, Pacoima, California",https://cdn.loc.gov/service/pnp/mrg/05300/05374v.jpg,California,Pacoima,34.2625025,-118.427027
"Barnsdahl-Rio Gas, Goleta, California",https://cdn.loc.gov/service/pnp/mrg/05400/05401v.jpg,California,Goleta,34.4358295,-119.8276389
"Barnsdahl-Rio Gas, Goleta, California",https://cdn.loc.gov/service/pnp/mrg/05400/05402v.jpg,California,Goleta,34.4358295,-119.8276389
"Barnsdahl-Rio Gas, Goleta, California",https://cdn.loc.gov/service/pnp/mrg/05400/05403v.jpg,California,Goleta,34.4358295,-119.8276389
"Barnsdahl-Rio Gas, Goleta, California",https://cdn.loc.gov/service/pnp/mrg/05400/05404v.jpg,California,Goleta,34.4358295,-119.8276389
"Barnsdahl-Rio Gas, Goleta, California",https://cdn.loc.gov/service/pnp/mrg/05400/05405v.jpg,California,Goleta,34.4358295,-119.8276389
"Union 76 Gas, Santa Ana, California",https://cdn.loc.gov/service/pnp/mrg/05400/05408v.jpg,California,Santa Ana,33.7494951,-117.873221
"Gas station at Dining Cars Cafe, Buellton, California",https://cdn.loc.gov/service/pnp/mrg/05400/05409v.jpg,California,Buellton,34.6134727,-120.193669
"Gas station Richfield, Goleta, California",https://cdn.loc.gov/service/pnp/mrg/05400/05433v.jpg,California,Goleta,34.4358295,-119.8276389
"Union 76 Gas, San Luis Obispo, California",https://cdn.loc.gov/service/pnp/mrg/05400/05464v.jpg,California,San Luis Obispo,35.3540209,-120.375716
"Union 76 Gas, San Luis Obispo, California",https://cdn.loc.gov/service/pnp/mrg/05400/05465v.jpg,California,San Luis Obispo,35.3540209,-120.375716
"Union 76 Gas, San Luis Obispo, California",https://cdn.loc.gov/service/pnp/mrg/05400/05466v.jpg,California,San Luis Obispo,35.3540209,-120.375716
"Union 76 Gas, San Luis Obispo, California",https://cdn.loc.gov/service/pnp/mrg/05400/05467v.jpg,California,San Luis Obispo,35.3540209,-120.375716
"Brother's Mobil, Santa Monica, California",https://cdn.loc.gov/service/pnp/mrg/05400/05497v.jpg,California,Santa Monica,34.0194704,-118.491227
"Mattoon Service Gulf, Culver City, California",https://cdn.loc.gov/service/pnp/mrg/05500/05501v.jpg,California,Culver City,34.0211224,-118.396466
"Union Oil, West Los Angeles, California",https://cdn.loc.gov/service/pnp/mrg/05500/05506v.jpg,California,West Los Angeles,34.0468546,-118.430254
"Giant Felix Used Cars, Los Angeles, California",https://cdn.loc.gov/service/pnp/mrg/05500/05525v.jpg,California,Los Angeles,34.0536909,-118.242766
"Golden Eagle Gas, San Diego, California",https://cdn.loc.gov/service/pnp/mrg/05500/05526v.jpg,California,San Diego,32.7174202,-117.162772
"Delta Queen Car Wash, Campbell, California",https://cdn.loc.gov/service/pnp/mrg/05500/05538v.jpg,California,Campbell,37.2870626,-121.944881
"Egyptian Garage, San Diego, California",https://cdn.loc.gov/service/pnp/mrg/05500/05543v.jpg,California,San Diego,32.7174202,-117.162772
"Egyptian Garage, San Diego, California",https://cdn.loc.gov/service/pnp/mrg/05500/05544v.jpg,California,San Diego,32.7174202,-117.162772
"Egyptian Garage, San Diego, California",https://cdn.loc.gov/service/pnp/mrg/05500/05545v.jpg,California,San Diego,32.7174202,-117.162772
"Egyptian Garage, San Diego, California",https://cdn.loc.gov/service/pnp/mrg/05500/05546v.jpg,California,San Diego,32.7174202,-117.162772
"Egyptian Garage, San Diego, California",https://cdn.loc.gov/service/pnp/mrg/05500/05547v.jpg,California,San Diego,32.7174202,-117.162772
"Egyptian Garage, San Diego, California",https://cdn.loc.gov/service/pnp/mrg/05500/05548v.jpg,California,San Diego,32.7174202,-117.162772
"Egyptian Garage, San Diego, California",https://cdn.loc.gov/service/pnp/mrg/05500/05549v.jpg,California,San Diego,32.7174202,-117.162772
"Egyptian Garage, San Diego, California",https://cdn.loc.gov/service/pnp/mrg/05500/05550v.jpg,California,San Diego,32.7174202,-117.162772
"Egyptian Garage, San Diego, California",https://cdn.loc.gov/service/pnp/mrg/05500/05551v.jpg,California,San Diego,32.7174202,-117.162772
"Egyptian Garage, San Diego, California",https://cdn.loc.gov/service/pnp/mrg/05500/05552v.jpg,California,San Diego,32.7174202,-117.162772
"Egyptian Garage, San Diego, California",https://cdn.loc.gov/service/pnp/mrg/05500/05553v.jpg,California,San Diego,32.7174202,-117.162772
"Egyptian Garage, San Diego, California",https://cdn.loc.gov/service/pnp/mrg/05500/05554v.jpg,California,San Diego,32.7174202,-117.162772
"Egyptian Garage, San Diego, California",https://cdn.loc.gov/service/pnp/mrg/05500/05555v.jpg,California,San Diego,32.7174202,-117.162772
"Egyptian Garage, San Diego, California",https://cdn.loc.gov/service/pnp/mrg/05500/05556v.jpg,California,San Diego,32.7174202,-117.162772
"Felix Chevrolet, Los Angeles, California",https://cdn.loc.gov/service/pnp/mrg/05500/05557v.jpg,California,Los Angeles,34.0536909,-118.242766
"Bell Point Motors, Los Angeles, California",https://cdn.loc.gov/service/pnp/mrg/05500/05564v.jpg,California,Los Angeles,34.0536909,-118.242766
"Firestone Factory, Southgate, California",https://cdn.loc.gov/service/pnp/mrg/05500/05565v.jpg,California,Southgate,37.4333295,-122.1512119
"Gates Tires, Mar Vista, California",https://cdn.loc.gov/service/pnp/mrg/05500/05566v.jpg,California,Mar Vista,34.0037605,-118.4391641
"Gates Tires, Mar Vista, California",https://cdn.loc.gov/service/pnp/mrg/05500/05567v.jpg,California,Mar Vista,34.0037605,-118.4391641
"Gates Tires, Mar Vista, California",https://cdn.loc.gov/service/pnp/mrg/05500/05568v.jpg,California,Mar Vista,34.0037605,-118.4391641
"Felix Body Shop, Los Angeles, California",https://cdn.loc.gov/service/pnp/mrg/05500/05575v.jpg,California,Los Angeles,34.0536909,-118.242766
"Orange Blossom Grocery and Gas, Fontana, California",https://cdn.loc.gov/service/pnp/mrg/05500/05584v.jpg,California,Fontana,34.0922947,-117.43433
"Union Oil Gas, Sawtelle, Los Angeles, California",https://cdn.loc.gov/service/pnp/mrg/05600/05601v.jpg,California,Los Angeles,34.0536909,-118.242766
"Delta Queen Car Wash, Campbell, California",https://cdn.loc.gov/service/pnp/mrg/05600/05627v.jpg,California,Campbell,37.2870626,-121.944881
"Wheel align sign, San Diego, California",https://cdn.loc.gov/service/pnp/mrg/05600/05630v.jpg,California,San Diego,32.7174202,-117.162772
"OK Used Car sign, Arcata, California",https://cdn.loc.gov/service/pnp/mrg/05600/05634v.jpg,California,Arcata,40.866517,-124.08284
"Tire Man Big Brand tire statue, Van Nuys, California",https://cdn.loc.gov/service/pnp/mrg/05600/05643v.jpg,California,Van Nuys,34.1866193,-118.4486675
"Tire Man Big Brand tire statue, Van Nuys, California",https://cdn.loc.gov/service/pnp/mrg/05600/05644v.jpg,California,Van Nuys,34.1866193,-118.4486675
"Earl Scheib sign, Beverly Hills, California",https://cdn.loc.gov/service/pnp/mrg/05600/05649v.jpg,California,Beverly Hills,34.0696501,-118.3963062
"Far-go gas pump, Main Street, Barstow, California",https://cdn.loc.gov/service/pnp/mrg/05600/05695v.jpg,California,Barstow,34.8986215,-117.0244313
"Olympic gas pumps, El Cajon, California",https://cdn.loc.gov/service/pnp/mrg/05700/05704v.jpg,California,El Cajon,32.7947731,-116.962526
"Visible pump, Loma Linda, California",https://cdn.loc.gov/service/pnp/mrg/05700/05708v.jpg,California,Loma Linda,34.0537971,-117.2610925
"Far-go gas pumps, Main Street, Barstow, California",https://cdn.loc.gov/service/pnp/mrg/05700/05716v.jpg,California,Barstow,34.8986215,-117.0244313
"Fox Theater, Bakersfield, California",https://cdn.loc.gov/service/pnp/mrg/05700/05720v.jpg,California,Bakersfield,35.3738712,-119.019463
"Fox Theater, Bakersfield, California",https://cdn.loc.gov/service/pnp/mrg/05700/05721v.jpg,California,Bakersfield,35.3738712,-119.019463
"Fox Theater, Bakersfield, California",https://cdn.loc.gov/service/pnp/mrg/05700/05722v.jpg,California,Bakersfield,35.3738712,-119.019463
"Fox Theater, Bakersfield, California",https://cdn.loc.gov/service/pnp/mrg/05700/05723v.jpg,California,Bakersfield,35.3738712,-119.019463
"Fox Theater, Bakersfield, California",https://cdn.loc.gov/service/pnp/mrg/05700/05724v.jpg,California,Bakersfield,35.3738712,-119.019463
"Fox Theater, Bakersfield, California",https://cdn.loc.gov/service/pnp/mrg/05700/05725v.jpg,California,Bakersfield,35.3738712,-119.019463
"Fox Theater, Bakersfield, California",https://cdn.loc.gov/service/pnp/mrg/05700/05726v.jpg,California,Bakersfield,35.3738712,-119.019463
"Fox Theater, Bakersfield, California",https://cdn.loc.gov/service/pnp/mrg/05700/05727v.jpg,California,Bakersfield,35.3738712,-119.019463
"Fox Theater, Bakersfield, California",https://cdn.loc.gov/service/pnp/mrg/05700/05728v.jpg,California,Bakersfield,35.3738712,-119.019463
"Fox Theater, Bakersfield, California",https://cdn.loc.gov/service/pnp/mrg/05700/05729v.jpg,California,Bakersfield,35.3738712,-119.019463
"Fox Theater, Bakersfield, California",https://cdn.loc.gov/service/pnp/mrg/05700/05730v.jpg,California,Bakersfield,35.3738712,-119.019463
"Fox Theater, Bakersfield, California",https://cdn.loc.gov/service/pnp/mrg/05700/05731v.jpg,California,Bakersfield,35.3738712,-119.019463
"Fox Theater, Bakersfield, California",https://cdn.loc.gov/service/pnp/mrg/05700/05732v.jpg,California,Bakersfield,35.3738712,-119.019463
"Fox Theater, Bakersfield, California",https://cdn.loc.gov/service/pnp/mrg/05700/05733v.jpg,California,Bakersfield,35.3738712,-119.019463
"Fox Theater, Bakersfield, California",https://cdn.loc.gov/service/pnp/mrg/05700/05734v.jpg,California,Bakersfield,35.3738712,-119.019463
"Fox Theater, Bakersfield, California",https://cdn.loc.gov/service/pnp/mrg/05700/05735v.jpg,California,Bakersfield,35.3738712,-119.019463
"Fox Theater, Bakersfield, California",https://cdn.loc.gov/service/pnp/mrg/05700/05736v.jpg,California,Bakersfield,35.3738712,-119.019463
"Fox Theater, Bakersfield, California",https://cdn.loc.gov/service/pnp/mrg/05700/05737v.jpg,California,Bakersfield,35.3738712,-119.019463
"Fox Theater, Bakersfield, California",https://cdn.loc.gov/service/pnp/mrg/05700/05738v.jpg,California,Bakersfield,35.3738712,-119.019463
"Fox Theater, Bakersfield, California",https://cdn.loc.gov/service/pnp/mrg/05700/05739v.jpg,California,Bakersfield,35.3738712,-119.019463
"Fox Theater, Bakersfield, California",https://cdn.loc.gov/service/pnp/mrg/05700/05740v.jpg,California,Bakersfield,35.3738712,-119.019463
"Fox Theater, Los Angeles, California",https://cdn.loc.gov/service/pnp/mrg/05700/05742v.jpg,California,Los Angeles,34.0536909,-118.242766
"Fox Theater, Visalia, California",https://cdn.loc.gov/service/pnp/mrg/05700/05743v.jpg,California,Visalia,36.3302284,-119.292058
"Fox Theater, Visalia, California",https://cdn.loc.gov/service/pnp/mrg/05700/05744v.jpg,California,Visalia,36.3302284,-119.292058
"Fox Theater, Visalia, California",https://cdn.loc.gov/service/pnp/mrg/05700/05745v.jpg,California,Visalia,36.3302284,-119.292058
"Fox Theater, Visalia, California",https://cdn.loc.gov/service/pnp/mrg/05700/05746v.jpg,California,Visalia,36.3302284,-119.292058
"Hollywood Palladium, Hollywood, California",https://cdn.loc.gov/service/pnp/mrg/05700/05747v.jpg,California,Hollywood,34.0980031,-118.329523
"Hollywood Palladium, Hollywood, California",https://cdn.loc.gov/service/pnp/mrg/05700/05748v.jpg,California,Hollywood,34.0980031,-118.329523
"Cinema, Merced, California",https://cdn.loc.gov/service/pnp/mrg/05700/05749v.jpg,California,Merced,37.1641544,-120.7678602
"Mayfair Music Hall, Santa Monica, California",https://cdn.loc.gov/service/pnp/mrg/05700/05750v.jpg,California,Santa Monica,34.0194704,-118.491227
"Grauman's Chinese Theater, Hollywood, California",https://cdn.loc.gov/service/pnp/mrg/05700/05753v.jpg,California,Hollywood,34.0980031,-118.329523
"Grauman's Chinese Theater, Hollywood, California",https://cdn.loc.gov/service/pnp/mrg/05700/05754v.jpg,California,Hollywood,34.0980031,-118.329523
"Grauman's Chinese Theater, Hollywood, California",https://cdn.loc.gov/service/pnp/mrg/05700/05755v.jpg,California,Hollywood,34.0980031,-118.329523
"Minor Theater, Arcata, California",https://cdn.loc.gov/service/pnp/mrg/05700/05757v.jpg,California,Arcata,40.866517,-124.08284
"Atwater signal-Merced Daily Sun Star, Atwater, California",https://cdn.loc.gov/service/pnp/mrg/05700/05758v.jpg,California,Atwater,37.3477174,-120.609084
"Chinese Theater, Hollywood, California",https://cdn.loc.gov/service/pnp/mrg/05700/05759v.jpg,California,Hollywood,34.0980031,-118.329523
"Culver Theater, Culver City, California",https://cdn.loc.gov/service/pnp/mrg/05700/05760v.jpg,California,Culver City,34.0211224,-118.396466
"Balboa Theater, San Diego, California",https://cdn.loc.gov/service/pnp/mrg/05700/05762v.jpg,California,San Diego,32.7174202,-117.162772
"Crest Theater, Fresno, California",https://cdn.loc.gov/service/pnp/mrg/05700/05763v.jpg,California,Fresno,36.7394421,-119.78483
"Crest Theater, Fresno, California",https://cdn.loc.gov/service/pnp/mrg/05700/05764v.jpg,California,Fresno,36.7394421,-119.78483
"Crest Theater, Fresno, California",https://cdn.loc.gov/service/pnp/mrg/05700/05765v.jpg,California,Fresno,36.7394421,-119.78483
"Crest Theater, Fresno, California",https://cdn.loc.gov/service/pnp/mrg/05700/05766v.jpg,California,Fresno,36.7394421,-119.78483
"Crest Theater, Fresno, California",https://cdn.loc.gov/service/pnp/mrg/05700/05767v.jpg,California,Fresno,36.7394421,-119.78483
"Crest Theater, Fresno, California",https://cdn.loc.gov/service/pnp/mrg/05700/05768v.jpg,California,Fresno,36.7394421,-119.78483
"Crest Theater, Fresno, California",https://cdn.loc.gov/service/pnp/mrg/05700/05769v.jpg,California,Fresno,36.7394421,-119.78483
"Crest Theater, Fresno, California",https://cdn.loc.gov/service/pnp/mrg/05700/05770v.jpg,California,Fresno,36.7394421,-119.78483
"Tower Theater, Sacramento, California",https://cdn.loc.gov/service/pnp/mrg/05700/05771v.jpg,California,Sacramento,38.5810606,-121.493895
"Tower Theater, Sacramento, California",https://cdn.loc.gov/service/pnp/mrg/05700/05772v.jpg,California,Sacramento,38.5810606,-121.493895
"Tower Theater, Sacramento, California",https://cdn.loc.gov/service/pnp/mrg/05700/05773v.jpg,California,Sacramento,38.5810606,-121.493895
"Fox Theater, Riverside, California",https://cdn.loc.gov/service/pnp/mrg/05700/05774v.jpg,California,Riverside,33.9824949,-117.374238
"Fox Theater, Riverside, California",https://cdn.loc.gov/service/pnp/mrg/05700/05775v.jpg,California,Riverside,33.9824949,-117.374238
"Fox Theater, Riverside, California",https://cdn.loc.gov/service/pnp/mrg/05700/05776v.jpg,California,Riverside,33.9824949,-117.374238
"Fox Theater, Riverside, California",https://cdn.loc.gov/service/pnp/mrg/05700/05777v.jpg,California,Riverside,33.9824949,-117.374238
"Tower Theater, Fresno, California",https://cdn.loc.gov/service/pnp/mrg/05700/05778v.jpg,California,Fresno,36.7394421,-119.78483
"Tower Theater, Fresno, California",https://cdn.loc.gov/service/pnp/mrg/05700/05779v.jpg,California,Fresno,36.7394421,-119.78483
"Tower Theater, Fresno, California",https://cdn.loc.gov/service/pnp/mrg/05700/05780v.jpg,California,Fresno,36.7394421,-119.78483
"Star Theater, Sacramento, California",https://cdn.loc.gov/service/pnp/mrg/05700/05781v.jpg,California,Sacramento,38.5810606,-121.493895
"Esquire Theater, Sacramento, California",https://cdn.loc.gov/service/pnp/mrg/05700/05782v.jpg,California,Sacramento,38.5810606,-121.493895
"Esquire Theater, Sacramento, California",https://cdn.loc.gov/service/pnp/mrg/05700/05783v.jpg,California,Sacramento,38.5810606,-121.493895
"Esquire Theater, Sacramento, California",https://cdn.loc.gov/service/pnp/mrg/05700/05784v.jpg,California,Sacramento,38.5810606,-121.493895
"Esquire Theater, Sacramento, California",https://cdn.loc.gov/service/pnp/mrg/05700/05785v.jpg,California,Sacramento,38.5810606,-121.493895
"Esquire Theater, Sacramento, California",https://cdn.loc.gov/service/pnp/mrg/05700/05786v.jpg,California,Sacramento,38.5810606,-121.493895
"Fox Theater, Oakland, California",https://cdn.loc.gov/service/pnp/mrg/05700/05787v.jpg,California,Oakland,37.8044557,-122.271356
"Fox Theater, Oakland, California",https://cdn.loc.gov/service/pnp/mrg/05700/05788v.jpg,California,Oakland,37.8044557,-122.271356
"Fox Theater, Oakland, California",https://cdn.loc.gov/service/pnp/mrg/05700/05789v.jpg,California,Oakland,37.8044557,-122.271356
"Fox Theater, Oakland, California",https://cdn.loc.gov/service/pnp/mrg/05700/05790v.jpg,California,Oakland,37.8044557,-122.271356
"Fox Theater, Oakland, California",https://cdn.loc.gov/service/pnp/mrg/05700/05791v.jpg,California,Oakland,37.8044557,-122.271356
"Fox Theater, Oakland, California",https://cdn.loc.gov/service/pnp/mrg/05700/05792v.jpg,California,Oakland,37.8044557,-122.271356
"Fox Theater, Oakland, California",https://cdn.loc.gov/service/pnp/mrg/05700/05793v.jpg,California,Oakland,37.8044557,-122.271356
"Fox Theater, Oakland, California",https://cdn.loc.gov/service/pnp/mrg/05700/05794v.jpg,California,Oakland,37.8044557,-122.271356
"Colonial Theater, Sacramento, California",https://cdn.loc.gov/service/pnp/mrg/05700/05795v.jpg,California,Sacramento,38.5810606,-121.493895
"Old City Hall, Riverside, California",https://cdn.loc.gov/service/pnp/mrg/05700/05796v.jpg,California,Riverside,33.9824949,-117.374238
"Tejon Theater, Bakersfield, California",https://cdn.loc.gov/service/pnp/mrg/05700/05797v.jpg,California,Bakersfield,35.3738712,-119.019463
"Brenden Theater, Modesto, California",https://cdn.loc.gov/service/pnp/mrg/05700/05798v.jpg,California,Modesto,37.6393419,-120.9968892
"Fox Westwood Village Theater, Westwood, California",https://cdn.loc.gov/service/pnp/mrg/05700/05799v.jpg,California,Westwood,34.0668947,-118.439944
"Fox Westwood Village Theater, Westwood, California",https://cdn.loc.gov/service/pnp/mrg/05800/05800v.jpg,California,Westwood,34.0668947,-118.439944
"Merced Theater, Main Street, Merced, California",https://cdn.loc.gov/service/pnp/mrg/05800/05801v.jpg,California,Merced,37.1641544,-120.7678602
"Merced Theater, Main Street, Merced, California",https://cdn.loc.gov/service/pnp/mrg/05800/05802v.jpg,California,Merced,37.1641544,-120.7678602
"Fox Theater, Visalia, California",https://cdn.loc.gov/service/pnp/mrg/05800/05803v.jpg,California,Visalia,36.3302284,-119.292058
"Fox Theater, Visalia, California",https://cdn.loc.gov/service/pnp/mrg/05800/05804v.jpg,California,Visalia,36.3302284,-119.292058
"Crest Theater, Sacramento, California",https://cdn.loc.gov/service/pnp/mrg/05800/05806v.jpg,California,Sacramento,38.5810606,-121.493895
"Crest Theater, Sacramento, California",https://cdn.loc.gov/service/pnp/mrg/05800/05807v.jpg,California,Sacramento,38.5810606,-121.493895
"Crest Theater, Sacramento, California",https://cdn.loc.gov/service/pnp/mrg/05800/05808v.jpg,California,Sacramento,38.5810606,-121.493895
"Paramount Theater, Oakland, California",https://cdn.loc.gov/service/pnp/mrg/05800/05809v.jpg,California,Oakland,37.8044557,-122.271356
"Paramount Theater, Oakland, California",https://cdn.loc.gov/service/pnp/mrg/05800/05810v.jpg,California,Oakland,37.8044557,-122.271356
"Paramount Theater, Oakland, California",https://cdn.loc.gov/service/pnp/mrg/05800/05811v.jpg,California,Oakland,37.8044557,-122.271356
"Paramount Theater, Oakland, California",https://cdn.loc.gov/service/pnp/mrg/05800/05812v.jpg,California,Oakland,37.8044557,-122.271356
"Paramount Theater, Oakland, California",https://cdn.loc.gov/service/pnp/mrg/05800/05813v.jpg,California,Oakland,37.8044557,-122.271356
"Paramount Theater, Oakland, California",https://cdn.loc.gov/service/pnp/mrg/05800/05814v.jpg,California,Oakland,37.8044557,-122.271356
"Paramount Theater, Oakland, California",https://cdn.loc.gov/service/pnp/mrg/05800/05815v.jpg,California,Oakland,37.8044557,-122.271356
"Paramount Theater, Oakland, California",https://cdn.loc.gov/service/pnp/mrg/05800/05816v.jpg,California,Oakland,37.8044557,-122.271356
"Loyola Theater, Manchester & Sepulveda Boulevard, Westchester, California",https://cdn.loc.gov/service/pnp/mrg/05800/05817v.jpg,California,Westchester,33.9597349,-118.400632
"Loyola Theater, Manchester & Sepulveda Boulevard, Westchester, California",https://cdn.loc.gov/service/pnp/mrg/05800/05818v.jpg,California,Westchester,33.9597349,-118.400632
"Loyola Theater, Manchester & Sepulveda Boulevard, Westchester, California",https://cdn.loc.gov/service/pnp/mrg/05800/05819v.jpg,California,Westchester,33.9597349,-118.400632
"Loyola Theater, Manchester & Sepulveda Boulevard, Westchester, California",https://cdn.loc.gov/service/pnp/mrg/05800/05820v.jpg,California,Westchester,33.9597349,-118.400632
"Loyola Theater, Manchester & Sepulveda Boulevard, Westchester, California",https://cdn.loc.gov/service/pnp/mrg/05800/05821v.jpg,California,Westchester,33.9597349,-118.400632
"XPO Adult Theater, Wilmington, California",https://cdn.loc.gov/service/pnp/mrg/05800/05852v.jpg,California,Wilmington,33.7800164,-118.262509
"5th Avenue Theater, Inglewood, California",https://cdn.loc.gov/service/pnp/mrg/06000/06012v.jpg,California,Inglewood,33.9562003,-118.353132
"Opera house, Petaluma, California",https://cdn.loc.gov/service/pnp/mrg/06000/06053v.jpg,California,Petaluma,38.2325829,-122.636465
"Opera house, Petaluma, California",https://cdn.loc.gov/service/pnp/mrg/06000/06054v.jpg,California,Petaluma,38.2325829,-122.636465
"Reused neon from Campus Drive-In, Lemon Grove, California",https://cdn.loc.gov/service/pnp/mrg/06000/06073v.jpg,California,Lemon Grove,32.7425516,-117.0314172
"Mt. Baldy Drive-In, La Verne, California",https://cdn.loc.gov/service/pnp/mrg/06000/06088v.jpg,California,La Verne,34.1008426,-117.7678355
"Olympic Drive-In, West Los Angeles, California",https://cdn.loc.gov/service/pnp/mrg/06000/06089v.jpg,California,West Los Angeles,34.0468546,-118.430254
"Rubidoux Drive-In, Rubidoux, California",https://cdn.loc.gov/service/pnp/mrg/06000/06090v.jpg,California,Rubidoux,33.9943119,-117.4237761
"Studio Drive-In, Culver City, California",https://cdn.loc.gov/service/pnp/mrg/06000/06092v.jpg,California,Culver City,34.0211224,-118.396466
"Studio Drive-In, Culver City, California",https://cdn.loc.gov/service/pnp/mrg/06000/06093v.jpg,California,Culver City,34.0211224,-118.396466
"Van Nuys Drive-In, Van Nuys, California",https://cdn.loc.gov/service/pnp/mrg/06000/06097v.jpg,California,Van Nuys,34.1866193,-118.4486675
"Campus Drive-In, San Diego, California",https://cdn.loc.gov/service/pnp/mrg/06000/06099v.jpg,California,San Diego,32.7174202,-117.162772
"Campus Drive-In, San Diego, California",https://cdn.loc.gov/service/pnp/mrg/06100/06100v.jpg,California,San Diego,32.7174202,-117.162772
"Lakewood Drive-In, Carson Street, Lakewood, California",https://cdn.loc.gov/service/pnp/mrg/06100/06101v.jpg,California,Lakewood,33.8503463,-118.117191
"Tri City Drive-In, Redlands Boulevard, Loma Linda, California",https://cdn.loc.gov/service/pnp/mrg/06100/06102v.jpg,California,Loma Linda,34.0537971,-117.2610925
"Tri City Drive-In, Redlands Boulevard, Loma Linda, California",https://cdn.loc.gov/service/pnp/mrg/06100/06103v.jpg,California,Loma Linda,34.0537971,-117.2610925
"Green Pines mini golf, raised lip hole, Redding, California",https://cdn.loc.gov/service/pnp/mrg/06100/06134v.jpg,California,Redding,40.5863563,-122.391675
"Blackbeard's mini golf, six bumpers, Fresno, California",https://cdn.loc.gov/service/pnp/mrg/06100/06188v.jpg,California,Fresno,36.7394421,-119.78483
"Blackbeard's mini golf, star and two bumpers, Fresno, California",https://cdn.loc.gov/service/pnp/mrg/06100/06189v.jpg,California,Fresno,36.7394421,-119.78483
"Castle Amusement, candy house, Riverside, California",https://cdn.loc.gov/service/pnp/mrg/06200/06239v.jpg,California,Riverside,33.9824949,-117.374238
"Twin Pines mini golf, Readings, California",https://cdn.loc.gov/service/pnp/mrg/06200/06247v.jpg,California,Readings,34.2642987,-118.5398653
"Gold mine Castle Amusement Park golf, Riverside, California",https://cdn.loc.gov/service/pnp/mrg/06200/06269v.jpg,California,Riverside,33.9824949,-117.374238
"Fountain Valley mini golf, windmill, Fountain Valley, California",https://cdn.loc.gov/service/pnp/mrg/06200/06273v.jpg,California,Fountain Valley,33.7038145,-117.9627349
"Fountain Valley mini golf, Mission San Juan, Fountain Valley, California",https://cdn.loc.gov/service/pnp/mrg/06200/06274v.jpg,California,Fountain Valley,33.7038145,-117.9627349
"Fountain Valley mini golf, Fountain Valley, California",https://cdn.loc.gov/service/pnp/mrg/06200/06275v.jpg,California,Fountain Valley,33.7038145,-117.9627349
"Fountain Valley mini golf, schoolhouse, Fountain Valley, California",https://cdn.loc.gov/service/pnp/mrg/06200/06276v.jpg,California,Fountain Valley,33.7038145,-117.9627349
"Prehistoric Museum, Cabazon, California",https://cdn.loc.gov/service/pnp/mrg/06300/06386v.jpg,California,Cabazon,33.9090305,-116.7795345
"Prehistoric Museum, Cabazon, California",https://cdn.loc.gov/service/pnp/mrg/06300/06387v.jpg,California,Cabazon,33.9090305,-116.7795345
"Prehistoric Museum, Cabazon, California",https://cdn.loc.gov/service/pnp/mrg/06300/06388v.jpg,California,Cabazon,33.9090305,-116.7795345
"Prehistoric Museum, Cabazon, California",https://cdn.loc.gov/service/pnp/mrg/06300/06389v.jpg,California,Cabazon,33.9090305,-116.7795345
"Paul Bunyan & Babe, Trees of Mystery, Route 101, Klamath, California",https://cdn.loc.gov/service/pnp/mrg/06500/06548v.jpg,California,Klamath,41.5265092,-124.038406
"Paul Bunyan & Babe, Trees of Mystery, Route 101, Klamath, California",https://cdn.loc.gov/service/pnp/mrg/06500/06549v.jpg,California,Klamath,41.5265092,-124.038406
"Paul Bunyan & Babe, Trees of Mystery, Route 101, Klamath, California",https://cdn.loc.gov/service/pnp/mrg/06500/06550v.jpg,California,Klamath,41.5265092,-124.038406
"Montana De Oro State Park, Los Osos, California",https://cdn.loc.gov/service/pnp/mrg/06600/06608v.jpg,California,Los Osos,35.3107214,-120.832348
"Montana De Oro State Park, Los Osos, California",https://cdn.loc.gov/service/pnp/mrg/06600/06609v.jpg,California,Los Osos,35.3107214,-120.832348
"Montana De Oro State Park, Los Osos, California",https://cdn.loc.gov/service/pnp/mrg/06600/06610v.jpg,California,Los Osos,35.3107214,-120.832348
"Green Pines mini golf, Redding, California",https://cdn.loc.gov/service/pnp/mrg/06600/06660v.jpg,California,Redding,40.5863563,-122.391675
"Green Pines mini golf, Redding, California",https://cdn.loc.gov/service/pnp/mrg/06600/06661v.jpg,California,Redding,40.5863563,-122.391675
"Wheel-In Mini Mart, Cabazon, California",https://cdn.loc.gov/service/pnp/mrg/06700/06741v.jpg,California,Cabazon,33.9090305,-116.7795345
"Giant artichoke, Castroville, California",https://cdn.loc.gov/service/pnp/mrg/06700/06744v.jpg,California,Castroville,36.7657904,-121.758005
"Giant artichoke, Castroville, California",https://cdn.loc.gov/service/pnp/mrg/06700/06745v.jpg,California,Castroville,36.7657904,-121.758005
"Fire Chief Hat Dog, Barstow, California",https://cdn.loc.gov/service/pnp/mrg/06900/06943v.jpg,California,Barstow,34.8986215,-117.0244313
"McDonald's, Azusa, California",https://cdn.loc.gov/service/pnp/mrg/06900/06979v.jpg,California,Azusa,34.1338751,-117.9056046
"McDonald's, Azusa, California",https://cdn.loc.gov/service/pnp/mrg/06900/06980v.jpg,California,Azusa,34.1338751,-117.9056046
"McDonald's, Azusa, California",https://cdn.loc.gov/service/pnp/mrg/06900/06981v.jpg,California,Azusa,34.1338751,-117.9056046
"McDonald's, Azusa, California",https://cdn.loc.gov/service/pnp/mrg/06900/06982v.jpg,California,Azusa,34.1338751,-117.9056046
"McDonald's, Downey, California",https://cdn.loc.gov/service/pnp/mrg/06900/06987v.jpg,California,Downey,33.9404441,-118.1292846
"Col. Sanders, Daly City, California",https://cdn.loc.gov/service/pnp/mrg/06900/06989v.jpg,California,Daly City,37.6904826,-122.47267
"Col. Sanders, Daly City, California",https://cdn.loc.gov/service/pnp/mrg/06900/06990v.jpg,California,Daly City,37.6904826,-122.47267
"Bob-A-Q Restaurant, near Morro Bay, Morro Bay, California",https://cdn.loc.gov/service/pnp/mrg/06900/06997v.jpg,California,Morro Bay,35.3658075,-120.849901
"Bob-A-Q Restaurant, near Morro Bay, Morro Bay, California",https://cdn.loc.gov/service/pnp/mrg/06900/06998v.jpg,California,Morro Bay,35.3658075,-120.849901
"Sea Food Hut, Los Angeles, California",https://cdn.loc.gov/service/pnp/mrg/07000/07006v.jpg,California,Los Angeles,34.0536909,-118.242766
"Sea Food Hut, Los Angeles, California",https://cdn.loc.gov/service/pnp/mrg/07000/07007v.jpg,California,Los Angeles,34.0536909,-118.242766
"Bill's Hot Dog Stand, Burbank, California",https://cdn.loc.gov/service/pnp/mrg/07000/07068v.jpg,California,Burbank,34.1812089,-118.307201
"Fire Chief Hat Dog, Barstow, California",https://cdn.loc.gov/service/pnp/mrg/07000/07082v.jpg,California,Barstow,34.8986215,-117.0244313
"Variety Barrel, El Cajon, California",https://cdn.loc.gov/service/pnp/mrg/07000/07085v.jpg,California,El Cajon,32.7947731,-116.962526
"Rice Bowl, Merced, California",https://cdn.loc.gov/service/pnp/mrg/07000/07086v.jpg,California,Merced,37.1641544,-120.7678602
"Rice Bowl, Merced, California",https://cdn.loc.gov/service/pnp/mrg/07000/07087v.jpg,California,Merced,37.1641544,-120.7678602
"Rice Bowl, Merced, California",https://cdn.loc.gov/service/pnp/mrg/07000/07088v.jpg,California,Merced,37.1641544,-120.7678602
"King's Fried Chicken (Church), Los Angeles, California",https://cdn.loc.gov/service/pnp/mrg/07000/07089v.jpg,California,Los Angeles,34.0536909,-118.242766
"King's Fried Chicken (Church), Los Angeles, California",https://cdn.loc.gov/service/pnp/mrg/07000/07090v.jpg,California,Los Angeles,34.0536909,-118.242766
"Sombrero Taco Shop, San Diego, California",https://cdn.loc.gov/service/pnp/mrg/07000/07094v.jpg,California,San Diego,32.7174202,-117.162772
"Sombrero Taco Shop, San Diego, California",https://cdn.loc.gov/service/pnp/mrg/07000/07095v.jpg,California,San Diego,32.7174202,-117.162772
"Sombrero Taco Shop, San Diego, California",https://cdn.loc.gov/service/pnp/mrg/07000/07096v.jpg,California,San Diego,32.7174202,-117.162772
"Sombrero Taco Shop, San Diego, California",https://cdn.loc.gov/service/pnp/mrg/07000/07097v.jpg,California,San Diego,32.7174202,-117.162772
"Sombrero Taco Shop, San Diego, California",https://cdn.loc.gov/service/pnp/mrg/07000/07098v.jpg,California,San Diego,32.7174202,-117.162772
"Johnnies Fat Boy, Los Angeles, California",https://cdn.loc.gov/service/pnp/mrg/07100/07102v.jpg,California,Los Angeles,34.0536909,-118.242766
"Johnnies Fat Boy, Los Angeles, California",https://cdn.loc.gov/service/pnp/mrg/07100/07103v.jpg,California,Los Angeles,34.0536909,-118.242766
"The Bucket Burgers, Eagle Rock, California",https://cdn.loc.gov/service/pnp/mrg/07100/07109v.jpg,California,Eagle Rock,34.1390325,-118.2140958
"Dining Cars Cafe, Buellton, California",https://cdn.loc.gov/service/pnp/mrg/07100/07111v.jpg,California,Buellton,34.6134727,-120.193669
"Dining Cars Cafe, Buellton, California",https://cdn.loc.gov/service/pnp/mrg/07100/07112v.jpg,California,Buellton,34.6134727,-120.193669
"Dining Cars Cafe, Buellton, California",https://cdn.loc.gov/service/pnp/mrg/07100/07113v.jpg,California,Buellton,34.6134727,-120.193669
"Dining Cars Cafe, Buellton, California",https://cdn.loc.gov/service/pnp/mrg/07100/07114v.jpg,California,Buellton,34.6134727,-120.193669
"Dining Cars Cafe, Buellton, California",https://cdn.loc.gov/service/pnp/mrg/07100/07115v.jpg,California,Buellton,34.6134727,-120.193669
"Dining Cars Cafe, Buellton, California",https://cdn.loc.gov/service/pnp/mrg/07100/07116v.jpg,California,Buellton,34.6134727,-120.193669
"Dining Cars Cafe, Buellton, California",https://cdn.loc.gov/service/pnp/mrg/07100/07117v.jpg,California,Buellton,34.6134727,-120.193669
"Dining Cars Cafe, Buellton, California",https://cdn.loc.gov/service/pnp/mrg/07100/07118v.jpg,California,Buellton,34.6134727,-120.193669
"Dining Cars Cafe, Buellton, California",https://cdn.loc.gov/service/pnp/mrg/07100/07119v.jpg,California,Buellton,34.6134727,-120.193669
"Dining Cars Cafe, Buellton, California",https://cdn.loc.gov/service/pnp/mrg/07100/07120v.jpg,California,Buellton,34.6134727,-120.193669
"The Deli Station, Modesto, California",https://cdn.loc.gov/service/pnp/mrg/07100/07124v.jpg,California,Modesto,37.6393419,-120.9968892
"The Deli Station, Modesto, California",https://cdn.loc.gov/service/pnp/mrg/07100/07125v.jpg,California,Modesto,37.6393419,-120.9968892
"La Cana Restaurant, North Hollywood, California",https://cdn.loc.gov/service/pnp/mrg/07100/07160v.jpg,California,North Hollywood,34.1649502,-118.374752
"Brown Derby Restaurant, Los Angeles, California",https://cdn.loc.gov/service/pnp/mrg/07100/07161v.jpg,California,Los Angeles,34.0536909,-118.242766
"Crosswinds Restaurant, Arcata, California",https://cdn.loc.gov/service/pnp/mrg/07100/07162v.jpg,California,Arcata,40.866517,-124.08284
"Crosswinds Restaurant, Arcata, California",https://cdn.loc.gov/service/pnp/mrg/07100/07163v.jpg,California,Arcata,40.866517,-124.08284
"Far East Restaurant, Bakersfield, California",https://cdn.loc.gov/service/pnp/mrg/07100/07179v.jpg,California,Bakersfield,35.3738712,-119.019463
"Far East Restaurant, Bakersfield, California",https://cdn.loc.gov/service/pnp/mrg/07100/07180v.jpg,California,Bakersfield,35.3738712,-119.019463
"Cafe Waterfront, Eureka, California",https://cdn.loc.gov/service/pnp/mrg/07100/07198v.jpg,California,Eureka,40.8018746,-124.1707558
"Maharaja Club, Sacramento, California",https://cdn.loc.gov/service/pnp/mrg/07200/07259v.jpg,California,Sacramento,38.5810606,-121.493895
"Maharaja Club, Sacramento, California",https://cdn.loc.gov/service/pnp/mrg/07200/07260v.jpg,California,Sacramento,38.5810606,-121.493895
"Hot Cha Beer, Long Beach, California",https://cdn.loc.gov/service/pnp/mrg/07300/07303v.jpg,California,Long Beach,33.7690164,-118.191604
"Henne's Homemade Candies & Ice Cream, Ukiah, California",https://cdn.loc.gov/service/pnp/mrg/07300/07338v.jpg,California,Ukiah,39.1501662,-123.2077861
"Dutch Ice, Manteca, California",https://cdn.loc.gov/service/pnp/mrg/07300/07348v.jpg,California,Manteca,37.7986184,-121.2117148
"Yum Yum Frosty Freeze, Upland, California",https://cdn.loc.gov/service/pnp/mrg/07300/07351v.jpg,California,Upland,34.09751,-117.6483876
"Yoghurt Mill, El Cajon, California",https://cdn.loc.gov/service/pnp/mrg/07300/07378v.jpg,California,El Cajon,32.7947731,-116.962526
"OJ Stand, Turlock, California",https://cdn.loc.gov/service/pnp/mrg/07300/07379v.jpg,California,Turlock,37.4946568,-120.8465941
"OJ Stand, Turlock, California",https://cdn.loc.gov/service/pnp/mrg/07300/07380v.jpg,California,Turlock,37.4946568,-120.8465941
"OJ Stand, Turlock, California",https://cdn.loc.gov/service/pnp/mrg/07300/07381v.jpg,California,Turlock,37.4946568,-120.8465941
"OJ Stand, Turlock, California",https://cdn.loc.gov/service/pnp/mrg/07300/07382v.jpg,California,Turlock,37.4946568,-120.8465941
"OJ Stand, Turlock, California",https://cdn.loc.gov/service/pnp/mrg/07300/07383v.jpg,California,Turlock,37.4946568,-120.8465941
"OJ Stand, Turlock, California",https://cdn.loc.gov/service/pnp/mrg/07300/07384v.jpg,California,Turlock,37.4946568,-120.8465941
"Giant orange, Banta, California",https://cdn.loc.gov/service/pnp/mrg/07300/07385v.jpg,California,Banta,37.7543731,-121.3707773
"Giant orange, Banta, California",https://cdn.loc.gov/service/pnp/mrg/07300/07386v.jpg,California,Banta,37.7543731,-121.3707773
"Vanderamps Coffee Shop, Marina Del Rey, California",https://cdn.loc.gov/service/pnp/mrg/07400/07403v.jpg,California,Marina Del Rey,33.9776848,-118.448647
"Tail O' the Pup, Los Angeles, California",https://cdn.loc.gov/service/pnp/mrg/07400/07406v.jpg,California,Los Angeles,34.0536909,-118.242766
"Tail O' the Pup, Los Angeles, California",https://cdn.loc.gov/service/pnp/mrg/07400/07407v.jpg,California,Los Angeles,34.0536909,-118.242766
"The Donut Hole, La Puente, California",https://cdn.loc.gov/service/pnp/mrg/07400/07410v.jpg,California,La Puente,34.0280619,-117.953097
"The Donut Hole, La Puente, California",https://cdn.loc.gov/service/pnp/mrg/07400/07411v.jpg,California,La Puente,34.0280619,-117.953097
"The Donut Hole, La Puente, California",https://cdn.loc.gov/service/pnp/mrg/07400/07412v.jpg,California,La Puente,34.0280619,-117.953097
"Mr. Good's Donut House, Compton, California",https://cdn.loc.gov/service/pnp/mrg/07400/07425v.jpg,California,Compton,33.894927,-118.226624
"Hoot Owl Cafe, Southgate, California",https://cdn.loc.gov/service/pnp/mrg/07400/07426v.jpg,California,Southgate,37.4333295,-122.1512119
"Hoot Owl Cafe, Southgate, California",https://cdn.loc.gov/service/pnp/mrg/07400/07427v.jpg,California,Southgate,37.4333295,-122.1512119
"Randy's Donuts, Inglewood, California",https://cdn.loc.gov/service/pnp/mrg/07400/07435v.jpg,California,Inglewood,33.9562003,-118.353132
"Randy's Donuts, Inglewood, California",https://cdn.loc.gov/service/pnp/mrg/07400/07436v.jpg,California,Inglewood,33.9562003,-118.353132
"Randy's Donuts, Inglewood, California",https://cdn.loc.gov/service/pnp/mrg/07400/07437v.jpg,California,Inglewood,33.9562003,-118.353132
"Randy's Donuts, Inglewood, California",https://cdn.loc.gov/service/pnp/mrg/07400/07438v.jpg,California,Inglewood,33.9562003,-118.353132
"Big Do-Nut Drive-in, Inglewood, California",https://cdn.loc.gov/service/pnp/mrg/07400/07439v.jpg,California,Inglewood,33.9562003,-118.353132
"Big Do-Nut Drive-in, Inglewood, California",https://cdn.loc.gov/service/pnp/mrg/07400/07440v.jpg,California,Inglewood,33.9562003,-118.353132
"Pancho's Family Dinners, West Los Angeles, California",https://cdn.loc.gov/service/pnp/mrg/07400/07443v.jpg,California,West Los Angeles,34.0468546,-118.430254
"Pancho's Family Dinners, West Los Angeles, California",https://cdn.loc.gov/service/pnp/mrg/07400/07444v.jpg,California,West Los Angeles,34.0468546,-118.430254
"Jolly Kone Drive-in sign, Bakersfield, California",https://cdn.loc.gov/service/pnp/mrg/07400/07498v.jpg,California,Bakersfield,35.3738712,-119.019463
"Foster's Freeze ice cream stand, Cloverdale, California",https://cdn.loc.gov/service/pnp/mrg/07400/07499v.jpg,California,Cloverdale,38.8064632,-123.0178759
"Ray and Phil Bar sign, Stockton, California",https://cdn.loc.gov/service/pnp/mrg/07500/07560v.jpg,California,Stockton,37.9577016,-121.290779
"Ray and Phil Bar sign, Stockton, California",https://cdn.loc.gov/service/pnp/mrg/07500/07561v.jpg,California,Stockton,37.9577016,-121.290779
"Hunters Inn sign, Maxwell, California",https://cdn.loc.gov/service/pnp/mrg/07500/07583v.jpg,California,Maxwell,39.2770035,-122.192406
"Far East Food sign, Bakersfield, California",https://cdn.loc.gov/service/pnp/mrg/07500/07592v.jpg,California,Bakersfield,35.3738712,-119.019463
"Far East Food sign, Bakersfield, California",https://cdn.loc.gov/service/pnp/mrg/07500/07593v.jpg,California,Bakersfield,35.3738712,-119.019463
"Far East Food sign, Bakersfield, California",https://cdn.loc.gov/service/pnp/mrg/07500/07594v.jpg,California,Bakersfield,35.3738712,-119.019463
"A & W sign, Richmond, California",https://cdn.loc.gov/service/pnp/mrg/07600/07603v.jpg,California,Richmond,37.9357576,-122.347748
"El Rebozo Restaurant sign, Ukiah, California",https://cdn.loc.gov/service/pnp/mrg/07600/07606v.jpg,California,Ukiah,39.1501662,-123.2077861
"Jimmy Wong's Golden Dragon sign, La Mesa, California",https://cdn.loc.gov/service/pnp/mrg/07600/07621v.jpg,California,La Mesa,32.7678288,-117.0230839
"Pancho's Village Cocktails sign, Salinas, California",https://cdn.loc.gov/service/pnp/mrg/07600/07643v.jpg,California,Salinas,36.6744117,-121.655037
"Cafe Dining Cars sign, Buellton, California",https://cdn.loc.gov/service/pnp/mrg/07600/07697v.jpg,California,Buellton,34.6134727,-120.193669
"Campus Drive-in sign, Greenfield, California",https://cdn.loc.gov/service/pnp/mrg/07700/07719v.jpg,California,Greenfield,36.3207998,-121.243813
"Old Klamath Smoke House sign, Klamath, California",https://cdn.loc.gov/service/pnp/mrg/07700/07722v.jpg,California,Klamath,41.5265092,-124.038406
"Snappy Lunch sign, Guadalupe, California",https://cdn.loc.gov/service/pnp/mrg/07700/07741v.jpg,California,Guadalupe,34.971644,-120.571836
"Angelo's Drive-in Burger sign, Fresno, California",https://cdn.loc.gov/service/pnp/mrg/07700/07742v.jpg,California,Fresno,36.7394421,-119.78483
"Bob-A-Q sign near Morro Bay, Morro Bay, California",https://cdn.loc.gov/service/pnp/mrg/07700/07743v.jpg,California,Morro Bay,35.3658075,-120.849901
"Andre's Giant Burgers sign, Bakersfield, California",https://cdn.loc.gov/service/pnp/mrg/07700/07753v.jpg,California,Bakersfield,35.3738712,-119.019463
"Andre's Giant Burgers sign, Bakersfield, California",https://cdn.loc.gov/service/pnp/mrg/07700/07754v.jpg,California,Bakersfield,35.3738712,-119.019463
"Father's Also Tavern sign, Redlands, California",https://cdn.loc.gov/service/pnp/mrg/07700/07755v.jpg,California,Redlands,34.0550328,-117.1827445
"Eel River Cafe sign, Garberville, California",https://cdn.loc.gov/service/pnp/mrg/07700/07757v.jpg,California,Garberville,40.100569,-123.796139
"Burger King sign, Victorville, California",https://cdn.loc.gov/service/pnp/mrg/07700/07759v.jpg,California,Victorville,34.5361067,-117.2911565
"Restwell Court, Pismo Beach, California",https://cdn.loc.gov/service/pnp/mrg/07700/07797v.jpg,California,Pismo Beach,35.1427436,-120.641288
"Restwell Court, Pismo Beach, California",https://cdn.loc.gov/service/pnp/mrg/07700/07798v.jpg,California,Pismo Beach,35.1427436,-120.641288
"Restwell Court, Pismo Beach, California",https://cdn.loc.gov/service/pnp/mrg/07700/07799v.jpg,California,Pismo Beach,35.1427436,-120.641288
"El Portal Motel, Santa Rosa, California",https://cdn.loc.gov/service/pnp/mrg/07800/07801v.jpg,California,Santa Rosa,38.4404925,-122.7141049
"El Portal Motel, Santa Rosa, California",https://cdn.loc.gov/service/pnp/mrg/07800/07802v.jpg,California,Santa Rosa,38.4404925,-122.7141049
"El Portal Motel, Santa Rosa, California",https://cdn.loc.gov/service/pnp/mrg/07800/07803v.jpg,California,Santa Rosa,38.4404925,-122.7141049
"Wigwam Village #7, Rialto, California",https://cdn.loc.gov/service/pnp/mrg/07800/07865v.jpg,California,Rialto,34.1064001,-117.3703235
"Wigwam Village #7, Rialto, California",https://cdn.loc.gov/service/pnp/mrg/07800/07866v.jpg,California,Rialto,34.1064001,-117.3703235
"Wigwam Village #7, Rialto, California",https://cdn.loc.gov/service/pnp/mrg/07800/07867v.jpg,California,Rialto,34.1064001,-117.3703235
"Wigwam Village #7, Rialto, California",https://cdn.loc.gov/service/pnp/mrg/07800/07868v.jpg,California,Rialto,34.1064001,-117.3703235
"Wigwam Village #7, Rialto, California",https://cdn.loc.gov/service/pnp/mrg/07800/07869v.jpg,California,Rialto,34.1064001,-117.3703235
"Wigwam Village #7, Rialto, California",https://cdn.loc.gov/service/pnp/mrg/07800/07870v.jpg,California,Rialto,34.1064001,-117.3703235
"Wigwam Village #7, Rialto, California",https://cdn.loc.gov/service/pnp/mrg/07800/07871v.jpg,California,Rialto,34.1064001,-117.3703235
"Wigwam Village #7, Rialto, California",https://cdn.loc.gov/service/pnp/mrg/07800/07872v.jpg,California,Rialto,34.1064001,-117.3703235
"Wigwam Village #7, Rialto, California",https://cdn.loc.gov/service/pnp/mrg/07800/07873v.jpg,California,Rialto,34.1064001,-117.3703235
"Wigwam Village #7, Rialto, California",https://cdn.loc.gov/service/pnp/mrg/07800/07874v.jpg,California,Rialto,34.1064001,-117.3703235
"Wigwam Village #7, Rialto, California",https://cdn.loc.gov/service/pnp/mrg/07800/07875v.jpg,California,Rialto,34.1064001,-117.3703235
"Wigwam Village Motel, Rialto, California",https://cdn.loc.gov/service/pnp/mrg/07800/07876v.jpg,California,Rialto,34.1064001,-117.3703235
"Wigwam Village Motel, Rialto, California",https://cdn.loc.gov/service/pnp/mrg/07800/07877v.jpg,California,Rialto,34.1064001,-117.3703235
"Wigwam Village Motel, Rialto, California",https://cdn.loc.gov/service/pnp/mrg/07800/07878v.jpg,California,Rialto,34.1064001,-117.3703235
"Wigwam Village Motel, Rialto, California",https://cdn.loc.gov/service/pnp/mrg/07800/07879v.jpg,California,Rialto,34.1064001,-117.3703235
"Wigwam Village Motel, Rialto, California",https://cdn.loc.gov/service/pnp/mrg/07800/07880v.jpg,California,Rialto,34.1064001,-117.3703235
"Wigwam Village Motel, Rialto, California",https://cdn.loc.gov/service/pnp/mrg/07800/07881v.jpg,California,Rialto,34.1064001,-117.3703235
"Wigwam Village Motel, Rialto, California",https://cdn.loc.gov/service/pnp/mrg/07800/07882v.jpg,California,Rialto,34.1064001,-117.3703235
"Wigwam Village Motel, Rialto, California",https://cdn.loc.gov/service/pnp/mrg/07800/07883v.jpg,California,Rialto,34.1064001,-117.3703235
"Wigwam Village Motel, Rialto, California",https://cdn.loc.gov/service/pnp/mrg/07800/07884v.jpg,California,Rialto,34.1064001,-117.3703235
"Wigwam Village Motel, Rialto, California",https://cdn.loc.gov/service/pnp/mrg/07800/07885v.jpg,California,Rialto,34.1064001,-117.3703235
"Wigwam Village Motel, Rialto, California",https://cdn.loc.gov/service/pnp/mrg/07800/07886v.jpg,California,Rialto,34.1064001,-117.3703235
"Wigwam Village Motel, Rialto, California",https://cdn.loc.gov/service/pnp/mrg/07800/07887v.jpg,California,Rialto,34.1064001,-117.3703235
"Wigwam Village Motel, Rialto, California",https://cdn.loc.gov/service/pnp/mrg/07800/07888v.jpg,California,Rialto,34.1064001,-117.3703235
"Motel Inn, San Luis Obispo, California",https://cdn.loc.gov/service/pnp/mrg/07800/07889v.jpg,California,San Luis Obispo,35.3540209,-120.375716
"Motel Inn, San Luis Obispo, California",https://cdn.loc.gov/service/pnp/mrg/07800/07890v.jpg,California,San Luis Obispo,35.3540209,-120.375716
"Motel Inn, San Luis Obispo, California",https://cdn.loc.gov/service/pnp/mrg/07800/07891v.jpg,California,San Luis Obispo,35.3540209,-120.375716
"Motel Inn, San Luis Obispo, California",https://cdn.loc.gov/service/pnp/mrg/07800/07892v.jpg,California,San Luis Obispo,35.3540209,-120.375716
"Motel Inn, San Luis Obispo, California",https://cdn.loc.gov/service/pnp/mrg/07800/07893v.jpg,California,San Luis Obispo,35.3540209,-120.375716
"Motel Inn, San Luis Obispo, California",https://cdn.loc.gov/service/pnp/mrg/07800/07894v.jpg,California,San Luis Obispo,35.3540209,-120.375716
"Motel Inn, San Luis Obispo, California",https://cdn.loc.gov/service/pnp/mrg/07800/07895v.jpg,California,San Luis Obispo,35.3540209,-120.375716
"Woodland Villa Motel, Klamath, California",https://cdn.loc.gov/service/pnp/mrg/07900/07901v.jpg,California,Klamath,41.5265092,-124.038406
"Log Cabin Motel, San Leandro, California",https://cdn.loc.gov/service/pnp/mrg/07900/07907v.jpg,California,San Leandro,37.7249296,-122.1560768
"Mission Motel, San Bernardino, California",https://cdn.loc.gov/service/pnp/mrg/07900/07908v.jpg,California,San Bernardino,34.8253019,-116.0833144
"Mission Motel, San Bernardino, California",https://cdn.loc.gov/service/pnp/mrg/07900/07909v.jpg,California,San Bernardino,34.8253019,-116.0833144
"Roy's Motel, Amboy, California",https://cdn.loc.gov/service/pnp/mrg/07900/07910v.jpg,California,Amboy,34.5577721,-115.7444411
"Roy's Motel, Amboy, California",https://cdn.loc.gov/service/pnp/mrg/07900/07911v.jpg,California,Amboy,34.5577721,-115.7444411
"Sea-Vue Motel, Cayucos, California",https://cdn.loc.gov/service/pnp/mrg/07900/07923v.jpg,California,Cayucos,35.4427512,-120.892125
"Hilldale Court, El Cajon, California",https://cdn.loc.gov/service/pnp/mrg/07900/07927v.jpg,California,El Cajon,32.7947731,-116.962526
"Madonna Inn, San Luis Obispo, California",https://cdn.loc.gov/service/pnp/mrg/07900/07928v.jpg,California,San Luis Obispo,35.3540209,-120.375716
"Farm House Motel, Riverside, California",https://cdn.loc.gov/service/pnp/mrg/07900/07929v.jpg,California,Riverside,33.9824949,-117.374238
"Farm House Motel, Riverside, California",https://cdn.loc.gov/service/pnp/mrg/07900/07930v.jpg,California,Riverside,33.9824949,-117.374238
"Gateway Motel, Merced, California",https://cdn.loc.gov/service/pnp/mrg/07900/07931v.jpg,California,Merced,37.1641544,-120.7678602
"Blue Bell Motel, San Luis Obispo, California",https://cdn.loc.gov/service/pnp/mrg/07900/07985v.jpg,California,San Luis Obispo,35.3540209,-120.375716
"Blue Bell Motel, San Luis Obispo, California",https://cdn.loc.gov/service/pnp/mrg/07900/07986v.jpg,California,San Luis Obispo,35.3540209,-120.375716
"Blue Bell Motel, San Luis Obispo, California",https://cdn.loc.gov/service/pnp/mrg/07900/07987v.jpg,California,San Luis Obispo,35.3540209,-120.375716
"Blue Bell Motel, San Luis Obispo, California",https://cdn.loc.gov/service/pnp/mrg/07900/07988v.jpg,California,San Luis Obispo,35.3540209,-120.375716
"Blue Bell Motel, San Luis Obispo, California",https://cdn.loc.gov/service/pnp/mrg/07900/07989v.jpg,California,San Luis Obispo,35.3540209,-120.375716
"Blue Bell Motel, San Luis Obispo, California",https://cdn.loc.gov/service/pnp/mrg/07900/07990v.jpg,California,San Luis Obispo,35.3540209,-120.375716
"Blue Bell Motel, San Luis Obispo, California",https://cdn.loc.gov/service/pnp/mrg/07900/07991v.jpg,California,San Luis Obispo,35.3540209,-120.375716
"Blue Bell Motel, San Luis Obispo, California",https://cdn.loc.gov/service/pnp/mrg/07900/07992v.jpg,California,San Luis Obispo,35.3540209,-120.375716
"Blue Bell Motel, San Luis Obispo, California",https://cdn.loc.gov/service/pnp/mrg/07900/07993v.jpg,California,San Luis Obispo,35.3540209,-120.375716
"Blue Bell Motel, San Luis Obispo, California",https://cdn.loc.gov/service/pnp/mrg/07900/07994v.jpg,California,San Luis Obispo,35.3540209,-120.375716
"Log Cabin Motel, San Leandro, California",https://cdn.loc.gov/service/pnp/mrg/08000/08095v.jpg,California,San Leandro,37.7249296,-122.1560768
"Tower Motel sign, Bakersfield, California",https://cdn.loc.gov/service/pnp/mrg/08300/08361v.jpg,California,Bakersfield,35.3738712,-119.019463
"Tower Motel sign, Bakersfield, California",https://cdn.loc.gov/service/pnp/mrg/08300/08362v.jpg,California,Bakersfield,35.3738712,-119.019463
"Tower Motel sign, Bakersfield, California",https://cdn.loc.gov/service/pnp/mrg/08300/08363v.jpg,California,Bakersfield,35.3738712,-119.019463
"Fresno Motel sign, Fresno, California",https://cdn.loc.gov/service/pnp/mrg/08500/08503v.jpg,California,Fresno,36.7394421,-119.78483
"Fresno Motel sign, Fresno, California",https://cdn.loc.gov/service/pnp/mrg/08500/08504v.jpg,California,Fresno,36.7394421,-119.78483
"Wigwam Village Motel sign, Rialto, California",https://cdn.loc.gov/service/pnp/mrg/08500/08539v.jpg,California,Rialto,34.1064001,-117.3703235
"Dick's Motor Inn, Banning, California",https://cdn.loc.gov/service/pnp/mrg/08500/08547v.jpg,California,Banning,33.9255685,-116.875289
"Del Coronado Hotel, Coronado Beach, California",https://cdn.loc.gov/service/pnp/mrg/09300/09337v.jpg,California,Coronado Beach,32.6831259,-117.1858699
"Del Coronado Hotel, Coronado Beach, California",https://cdn.loc.gov/service/pnp/mrg/09300/09338v.jpg,California,Coronado Beach,32.6831259,-117.1858699
"Residential Court, Venice, California",https://cdn.loc.gov/service/pnp/mrg/09300/09339v.jpg,California,Venice,33.995044,-118.4668875
"Billy's Apartments, Venice, California",https://cdn.loc.gov/service/pnp/mrg/09300/09340v.jpg,California,Venice,33.995044,-118.4668875
"Ocean front walk, Venice, California",https://cdn.loc.gov/service/pnp/mrg/10400/10498v.jpg,California,Venice,33.995044,-118.4668875
"Ocean front walk, Venice, California",https://cdn.loc.gov/service/pnp/mrg/10400/10499v.jpg,California,Venice,33.995044,-118.4668875
"Trike rental, Venice, California",https://cdn.loc.gov/service/pnp/mrg/10500/10500v.jpg,California,Venice,33.995044,-118.4668875
"Shops, Venice, California",https://cdn.loc.gov/service/pnp/mrg/10500/10501v.jpg,California,Venice,33.995044,-118.4668875
"Venice columns, Venice, California",https://cdn.loc.gov/service/pnp/mrg/10500/10502v.jpg,California,Venice,33.995044,-118.4668875
"Venice column capital, Venice, California",https://cdn.loc.gov/service/pnp/mrg/10500/10503v.jpg,California,Venice,33.995044,-118.4668875
"Venice bath house, Venice, California",https://cdn.loc.gov/service/pnp/mrg/10500/10504v.jpg,California,Venice,33.995044,-118.4668875
"Venice columns 2, Venice, California",https://cdn.loc.gov/service/pnp/mrg/10500/10505v.jpg,California,Venice,33.995044,-118.4668875
"Venice bath house sign, Venice, California",https://cdn.loc.gov/service/pnp/mrg/10500/10506v.jpg,California,Venice,33.995044,-118.4668875
"Poster shop, Venice, California",https://cdn.loc.gov/service/pnp/mrg/10500/10507v.jpg,California,Venice,33.995044,-118.4668875
"Ocean Park Pier fire, Santa Monica, California",https://cdn.loc.gov/service/pnp/mrg/10500/10508v.jpg,California,Santa Monica,34.0194704,-118.491227
"Santa Monica Pier, Santa Monica, California",https://cdn.loc.gov/service/pnp/mrg/10500/10509v.jpg,California,Santa Monica,34.0194704,-118.491227
"Carousel, Santa Monica, California",https://cdn.loc.gov/service/pnp/mrg/10500/10510v.jpg,California,Santa Monica,34.0194704,-118.491227
"Carousel, Santa Monica, California",https://cdn.loc.gov/service/pnp/mrg/10500/10511v.jpg,California,Santa Monica,34.0194704,-118.491227
"Carousel, Santa Monica, California",https://cdn.loc.gov/service/pnp/mrg/10500/10512v.jpg,California,Santa Monica,34.0194704,-118.491227
"Carousel, Santa Monica, California",https://cdn.loc.gov/service/pnp/mrg/10500/10513v.jpg,California,Santa Monica,34.0194704,-118.491227
"Santa Monica Pier, Santa Monica, California",https://cdn.loc.gov/service/pnp/mrg/10500/10514v.jpg,California,Santa Monica,34.0194704,-118.491227
"Castle Park Golf, hole 18, Redondo Beach, California",https://cdn.loc.gov/service/pnp/mrg/11700/11728v.jpg,California,Redondo Beach,33.8398289,-118.3845942
"Cafe Dining Cars (1947), Buellton, California",https://cdn.loc.gov/service/pnp/mrg/11700/11734v.jpg,California,Buellton,34.6134727,-120.193669
"Municipal Building, Santa Barbara, California",https://cdn.loc.gov/service/pnp/mrg/00900/00974v.jpg,California,Santa Barbara,34.4221319,-119.702667
"Peking Restaurant, Pico Boulevard, Santa Monica, California",https://cdn.loc.gov/service/pnp/mrg/01300/01303v.jpg,California,Santa Monica,34.0194704,-118.491227
"Rice Bowl Cafe, Ocean Avenue, Lompoc, California",https://cdn.loc.gov/service/pnp/mrg/01300/01316v.jpg,California,Lompoc,34.6391501,-120.4579009
"Road House, Route 66, Fontana, California",https://cdn.loc.gov/service/pnp/mrg/01300/01319v.jpg,California,Fontana,34.0922947,-117.43433
"Michael's Dancing, Ocean Avenue, Lompoc, California",https://cdn.loc.gov/service/pnp/mrg/01300/01320v.jpg,California,Lompoc,34.6391501,-120.4579009
"La Casiga Bar, 1109 E. Anaheim Street, Wilmington, California",https://cdn.loc.gov/service/pnp/mrg/01300/01321v.jpg,California,Wilmington,33.7800164,-118.262509
"Club Montage, Spring Street, Paso Robles, California",https://cdn.loc.gov/service/pnp/mrg/01300/01322v.jpg,California,Paso Robles,35.6262618,-120.6901319
"Club Montage, detail, Spring Street, Paso Robles, California",https://cdn.loc.gov/service/pnp/mrg/01300/01323v.jpg,California,Paso Robles,35.6262618,-120.6901319
"Road House (?), Ramsey Street (Route 99?), Banning, California",https://cdn.loc.gov/service/pnp/mrg/01300/01324v.jpg,California,Banning,33.9255685,-116.875289
"Rainbow Bar, Foothill Boulevard, Route 66, Rialto, California",https://cdn.loc.gov/service/pnp/mrg/01300/01325v.jpg,California,Rialto,34.1064001,-117.3703235
"Torino's Bar & Restaurant, Sutter Street, Stockton, California",https://cdn.loc.gov/service/pnp/mrg/01300/01326v.jpg,California,Stockton,37.9577016,-121.290779
"Kelly's Pub, El Cajon Boulevard, El Cajon, California",https://cdn.loc.gov/service/pnp/mrg/01300/01327v.jpg,California,El Cajon,32.7947731,-116.962526
"Father's Also Tavern, Redlands, California",https://cdn.loc.gov/service/pnp/mrg/01300/01328v.jpg,California,Redlands,34.0550328,-117.1827445
"Gene's Little Ole Tavern, Ventura, California",https://cdn.loc.gov/service/pnp/mrg/01300/01329v.jpg,California,Ventura,34.4458248,-119.0779359
"Tom's Cafe, 2181 Manchester, Los Angeles, California",https://cdn.loc.gov/service/pnp/mrg/01300/01330v.jpg,California,Los Angeles,34.0536909,-118.242766
"Johnny's 329 Club, Avalon and Wilmingotn Boulevards, Wilmington, California",https://cdn.loc.gov/service/pnp/mrg/01300/01331v.jpg,California,Wilmington,33.7800164,-118.262509
"Foodman Market, Pacific Coast Highway and Marine Avenue, Wilmington, California",https://cdn.loc.gov/service/pnp/mrg/01400/01408v.jpg,California,Wilmington,33.7800164,-118.262509
"Hollywood Inn sign, Motel Drive, Fresno, California",https://cdn.loc.gov/service/pnp/mrg/01400/01431v.jpg,California,Fresno,36.7394421,-119.78483
"Ranch-O-Tel sign, Motel Drive, Fresno, California",https://cdn.loc.gov/service/pnp/mrg/01400/01432v.jpg,California,Fresno,36.7394421,-119.78483
"Blue Bell Motel (1937) sign, 3053 S. Higuera Street, San Luis Obispo, California",https://cdn.loc.gov/service/pnp/mrg/01400/01433v.jpg,California,San Luis Obispo,35.3540209,-120.375716
"El Portal Motel sign, Santa Rosa Avenue, Santa Rosa, California",https://cdn.loc.gov/service/pnp/mrg/01400/01434v.jpg,California,Santa Rosa,38.4404925,-122.7141049
"Roy's Motel sign, Route 66, Amboy, California",https://cdn.loc.gov/service/pnp/mrg/01400/01435v.jpg,California,Amboy,34.5577721,-115.7444411
"San Bernardino Motel sign, Route 66 (Foothill Boulevard), San Bernardino, California",https://cdn.loc.gov/service/pnp/mrg/01400/01437v.jpg,California,San Bernardino,34.8253019,-116.0833144
"El Sombrero Motel sign, Abbott Avenue, Salinas, California",https://cdn.loc.gov/service/pnp/mrg/01400/01438v.jpg,California,Salinas,36.6744117,-121.655037
"Lark Motel sign, vertical view, Route 101, Willits, California",https://cdn.loc.gov/service/pnp/mrg/01400/01439v.jpg,California,Willits,39.4096043,-123.3555602
"Lark Motel sign, horizontal view, Route 101, Willits, California",https://cdn.loc.gov/service/pnp/mrg/01400/01440v.jpg,California,Willits,39.4096043,-123.3555602
"Manhattan Motel sign, Route 99 (Market Street), Redding, California",https://cdn.loc.gov/service/pnp/mrg/01400/01441v.jpg,California,Redding,40.5863563,-122.391675
"Grove Motel sign, Route 99, Willows, California",https://cdn.loc.gov/service/pnp/mrg/01400/01442v.jpg,California,Willows,39.5233276,-122.193531
"Casa Linda Motel sign, Route 99, Willows, California",https://cdn.loc.gov/service/pnp/mrg/01400/01443v.jpg,California,Willows,39.5233276,-122.193531
"Komfort Court sign, King City, California",https://cdn.loc.gov/service/pnp/mrg/01400/01444v.jpg,California,King City,36.2135291,-121.1247365
"Missile Motel sign, Port Hueneme, California",https://cdn.loc.gov/service/pnp/mrg/01400/01445v.jpg,California,Port Hueneme,34.1477558,-119.1951559
"Candy Motel sign, Route 99, Fresno, California",https://cdn.loc.gov/service/pnp/mrg/01400/01477v.jpg,California,Fresno,36.7394421,-119.78483
"Astro Motel sign, Motel Drive, Fresno, California",https://cdn.loc.gov/service/pnp/mrg/01400/01478v.jpg,California,Fresno,36.7394421,-119.78483
"Serra Motel sign, Old Route 101, Gilroy, California",https://cdn.loc.gov/service/pnp/mrg/01400/01479v.jpg,California,Gilroy,37.0065078,-121.5631723
"Doggie Diner sign, McArthur Boulevard & San Pablo, Oakland, California",https://cdn.loc.gov/service/pnp/mrg/01400/01489v.jpg,California,Oakland,37.8044557,-122.271356
"Dining Cars Cafe sign, Frontage Road, Route 101, Buellton, California",https://cdn.loc.gov/service/pnp/mrg/01400/01490v.jpg,California,Buellton,34.6134727,-120.193669
"McDonald's Restaurant sign, detail, Lakewood Boulevard, Downey, California",https://cdn.loc.gov/service/pnp/mrg/01500/01501v.jpg,California,Downey,33.9404441,-118.1292846
"McDonald's Restaurant sign, Los Angeles, California",https://cdn.loc.gov/service/pnp/mrg/01500/01502v.jpg,California,Los Angeles,34.0536909,-118.242766
"McDonald's Restaurant sign, Route 66, Azusa, California",https://cdn.loc.gov/service/pnp/mrg/01500/01503v.jpg,California,Azusa,34.1338751,-117.9056046
"McDonald's Restaurant sign, Route 66, Azusa, California",https://cdn.loc.gov/service/pnp/mrg/01500/01504v.jpg,California,Azusa,34.1338751,-117.9056046
"McDonald's Restaurant sign, detail one, Route 66, Azusa, California",https://cdn.loc.gov/service/pnp/mrg/01500/01505v.jpg,California,Azusa,34.1338751,-117.9056046
"McDonald's Restaurant sign, detail two, Route 66, Azusa, California",https://cdn.loc.gov/service/pnp/mrg/01500/01506v.jpg,California,Azusa,34.1338751,-117.9056046
"Argo's Coffee Shop sign, Santa Monica Boulevard, Los Angeles, California",https://cdn.loc.gov/service/pnp/mrg/01500/01583v.jpg,California,Los Angeles,34.0536909,-118.242766
"Shrimp Boat Restaurant sign, Rosemead Boulevard, Temple City, California",https://cdn.loc.gov/service/pnp/mrg/01500/01584v.jpg,California,Temple City,34.1082994,-118.0577568
"Gas pump, Alhambra Boulevard, Sacramento, California",https://cdn.loc.gov/service/pnp/mrg/01600/01662v.jpg,California,Sacramento,38.5810606,-121.493895
"Visible gas pump (restoration with Sinclair globe), Santa Margarita, California",https://cdn.loc.gov/service/pnp/mrg/01600/01663v.jpg,California,Santa Margarita,35.3899734,-120.609057
"Visible gas pump (restoration with Sinclair globe), close up view, Santa Margarita, California",https://cdn.loc.gov/service/pnp/mrg/01600/01664v.jpg,California,Santa Margarita,35.3899734,-120.609057
"Babcock's barber sign, Green Street, Tehachapi, California",https://cdn.loc.gov/service/pnp/mrg/01800/01828v.jpg,California,Tehachapi,35.1321878,-118.4489739
"Rubidoux Drive-in Theater, Mission Boulevard, Rubidoux, California",https://cdn.loc.gov/service/pnp/mrg/01800/01871v.jpg,California,Rubidoux,33.9943119,-117.4237761
"Mission Drive-in Theater, San Juan Capistrano, California",https://cdn.loc.gov/service/pnp/mrg/01900/01900v.jpg,California,San Juan Capistrano,33.5016932,-117.6625509
"Victory Drive-in Theater, Victory west of Coldwater Canyon, Van Nuys, California",https://cdn.loc.gov/service/pnp/mrg/01900/01906v.jpg,California,Van Nuys,34.1866193,-118.4486675
"Victory Drive-in Theater, Victory west of Coldwater Canyon, Van Nuys, California",https://cdn.loc.gov/service/pnp/mrg/01900/01907v.jpg,California,Van Nuys,34.1866193,-118.4486675
"Compton Drive-in Theater, Rosecrans Avenue, Compton, California",https://cdn.loc.gov/service/pnp/mrg/01900/01913v.jpg,California,Compton,33.894927,-118.226624
"Fountain Grove round barn, Santa Rosa, California",https://cdn.loc.gov/service/pnp/mrg/01900/01977v.jpg,California,Santa Rosa,38.4404925,-122.7141049
"Statue of Liberty at Shoreline Market, Route 101, Orick, California",https://cdn.loc.gov/service/pnp/mrg/01900/01984v.jpg,California,Orick,41.2867896,-124.0597937
"Statue of Liberty at Shoreline market (close up), Route 101, Orick, California",https://cdn.loc.gov/service/pnp/mrg/01900/01986v.jpg,California,Orick,41.2867896,-124.0597937
"Octagonal barn, South Higuera Street, San Luis Obispo, California",https://cdn.loc.gov/service/pnp/mrg/02000/02008v.jpg,California,San Luis Obispo,35.3540209,-120.375716
"Teepee at Grandfather Tree, Route 101, Garberville, California",https://cdn.loc.gov/service/pnp/mrg/02000/02038v.jpg,California,Garberville,40.100569,-123.796139
"Public parking, Sutter Street, Stockton, California",https://cdn.loc.gov/service/pnp/mrg/02000/02060v.jpg,California,Stockton,37.9577016,-121.290779
"Public parking structure, cornice detail, Sutter Street, Stockton, California",https://cdn.loc.gov/service/pnp/mrg/02000/02061v.jpg,California,Stockton,37.9577016,-121.290779
"Car dealership, Santa Monica, California",https://cdn.loc.gov/service/pnp/mrg/02000/02062v.jpg,California,Santa Monica,34.0194704,-118.491227
"Mazda Dealer, 1285 Colorado Boulevard, Pasadena, California",https://cdn.loc.gov/service/pnp/mrg/02000/02065v.jpg,California,Pasadena,34.1476507,-118.144155
"P&J Motors, 11059 Garvey Avenue, El Monte, California",https://cdn.loc.gov/service/pnp/mrg/02000/02066v.jpg,California,El Monte,34.0751571,-118.036849
"P&J Motors, 11059 Garvey Avenue, El Monte, California",https://cdn.loc.gov/service/pnp/mrg/02000/02067v.jpg,California,El Monte,34.0751571,-118.036849
"Breck's Auto Parts, 1922 showroom, 7355 Greenleaf Avenue, Whittier, California",https://cdn.loc.gov/service/pnp/mrg/02000/02072v.jpg,California,Whittier,33.9749136,-118.0338664
"Breck's Auto Parts, 1922 showroom, 7355 Greenleaf Avenue, Whittier, California",https://cdn.loc.gov/service/pnp/mrg/02000/02073v.jpg,California,Whittier,33.9749136,-118.0338664
"25 Cent Car Wash, Main Street & Ocean Park Boulevard, Santa Monica, California",https://cdn.loc.gov/service/pnp/mrg/02000/02080v.jpg,California,Santa Monica,34.0194704,-118.491227
"Cummings Buick, 15th Santa Monica Boulevard, Santa Monica, California",https://cdn.loc.gov/service/pnp/mrg/02000/02082v.jpg,California,Santa Monica,34.0194704,-118.491227
"Tire Town, 7402 Lankershim Boulevard, North Hollywood, California",https://cdn.loc.gov/service/pnp/mrg/02000/02083v.jpg,California,North Hollywood,34.1649502,-118.374752
"Old gas station, 7229 W. Melrose Ave., Los Angeles, California",https://cdn.loc.gov/service/pnp/mrg/02000/02099v.jpg,California,Los Angeles,34.0536909,-118.242766
"Uniroyal factory, Telegraph Road, Commerce, California",https://cdn.loc.gov/service/pnp/mrg/02100/02101v.jpg,California,Commerce,34.003218,-118.1541961
"Sanders Oldsmobile, La Brea & Wilshire, Los Angeles, California",https://cdn.loc.gov/service/pnp/mrg/02100/02105v.jpg,California,Los Angeles,34.0536909,-118.242766
"Sanders Oldsmobile, La Brea & Wilshire, Los Angeles, California",https://cdn.loc.gov/service/pnp/mrg/02100/02106v.jpg,California,Los Angeles,34.0536909,-118.242766
"Samson Auto Salvage, 8103 S. Alameda, Los Angeles, California",https://cdn.loc.gov/service/pnp/mrg/02100/02107v.jpg,California,Los Angeles,34.0536909,-118.242766
"Old oil dispensers, Union Oil, Sawtelle near Mississippi, West Los Angeles, California",https://cdn.loc.gov/service/pnp/mrg/02100/02116v.jpg,California,West Los Angeles,34.0468546,-118.430254
"Golden Eagle gas pump (#1), San Diego, California",https://cdn.loc.gov/service/pnp/mrg/02100/02117v.jpg,California,San Diego,32.7174202,-117.162772
"Golden Eagle gas pump (#2), San Diego, California",https://cdn.loc.gov/service/pnp/mrg/02100/02141v.jpg,California,San Diego,32.7174202,-117.162772
"Five Golden Eagle gas pumps (#2), San Diego, California",https://cdn.loc.gov/service/pnp/mrg/02100/02142v.jpg,California,San Diego,32.7174202,-117.162772
"Chevron gas pump, Jim Ruth Chevrolet, Home Gardens, California",https://cdn.loc.gov/service/pnp/mrg/02100/02143v.jpg,California,Home Gardens,33.8808327,-117.5133522
"Three Texaco gas pumps, Altadena, California",https://cdn.loc.gov/service/pnp/mrg/02100/02144v.jpg,California,Altadena,34.1928193,-118.1374663
"Four oil dispensers, Monterey Park, California",https://cdn.loc.gov/service/pnp/mrg/02100/02145v.jpg,California,Monterey Park,34.051522,-118.129807
"Gas pump, Sacramento, California",https://cdn.loc.gov/service/pnp/mrg/02100/02147v.jpg,California,Sacramento,38.5810606,-121.493895
"Union Oil Garage interior, Sawtelle near Mississippi, West Los Angeles, California",https://cdn.loc.gov/service/pnp/mrg/02100/02148v.jpg,California,West Los Angeles,34.0468546,-118.430254
"Mattoon Service Station interior, Gulf, Culver City, California",https://cdn.loc.gov/service/pnp/mrg/02100/02191v.jpg,California,Culver City,34.0211224,-118.396466
"Corker's Landing Rocket Gas sign, Turlock, California",https://cdn.loc.gov/service/pnp/mrg/02100/02198v.jpg,California,Turlock,37.4946568,-120.8465941
"Foster's Old Fashion Freeze ice cream sign, Paso Robles, California",https://cdn.loc.gov/service/pnp/mrg/02200/02264v.jpg,California,Paso Robles,35.6262618,-120.6901319
"Foster's Old Fashion Freeze ice cream sign, Paso Robles, California",https://cdn.loc.gov/service/pnp/mrg/02200/02265v.jpg,California,Paso Robles,35.6262618,-120.6901319
"Peg House, Redwood Gifts, Route 101, Leggett, California",https://cdn.loc.gov/service/pnp/mrg/01900/01929v.jpg,California,Leggett,39.8657071,-123.714188
"Stump House, Redwood Gifts, Route 101, Eureka, California",https://cdn.loc.gov/service/pnp/mrg/01900/01935v.jpg,California,Eureka,40.8018746,-124.1707558
"Peg House Gas, Route 101, Leggett, California",https://cdn.loc.gov/service/pnp/mrg/05500/05516v.jpg,California,Leggett,39.8657071,-123.714188
"Peg House Gas, Route 101, Leggett, California",https://cdn.loc.gov/service/pnp/mrg/05500/05517v.jpg,California,Leggett,39.8657071,-123.714188
